{
  "type": "FeatureCollection",
  "generator": "overpass-ide",
  "copyright": "The data included in this document is from www.openstreetmap.org. The data is made available under ODbL.",
  "timestamp": "2020-12-11T22:17:02Z",
  "features": [
    {
      "type": "Feature",
      "properties": {
        "@id": "node/16173235",
        "alt_name:es": "Mumbai",
        "capital": "4",
        "capital_1": "4",
        "ele": "8",
        "is_capital": "state",
        "is_in:country": "India",
        "is_in:iso_3166_2": "IN-MH",
        "name": "Mumbai",
        "name:ar": "Ù…ÙˆÙ…Ø¨Ø§ÙŠ",
        "name:arz": "Ù…ÙˆÙ…Ø¨Ø§Ù‰",
        "name:azb": "Ø¨Ù…Ø¨Ø¦ÛŒ",
        "name:bn": "à¦®à§à¦®à§à¦¬à¦‡",
        "name:ckb": "Ù…ÙˆÙ…Ø¨Ø§ÛŒ",
        "name:cs": "Bombaj",
        "name:de": "Mumbai",
        "name:en": "Mumbai",
        "name:eo": "Mumbajo",
        "name:es": "Bombay",
        "name:fa": "Ù…ÙˆÙ…Ø¨Ø§ÛŒ",
        "name:fr": "Mumbai",
        "name:gu": "àª®à«àª‚àª¬àªˆ",
        "name:he": "××•××‘××™",
        "name:hi": "à¤®à¥à¤‚à¤¬à¤ˆ",
        "name:ia": "Mumbai",
        "name:io": "Mumbai",
        "name:ja": "ãƒ ãƒ³ãƒã‚¤",
        "name:jbo": ".mumbais.",
        "name:kn": "à²®à³à²‚à²¬à³ˆ",
        "name:ks": "Ø¨ÙÙ…Ø¨ÙÛ’",
        "name:lt": "Mumbajus",
        "name:ml": "à´®àµà´‚à´¬àµˆ",
        "name:mr": "à¤®à¥à¤‚à¤¬à¤ˆ",
        "name:mzn": "Ù…ÙˆÙ…Ø¨Ø§ÛŒ",
        "name:oc": "Mumbai",
        "name:pl": "Mumbaj",
        "name:pnb": "Ù…Ù…Ø¨Ø¦ÛŒ",
        "name:ps": "Ù…Ù…Ø¨Ø§ÛŒ",
        "name:ru": "ĞœÑƒĞ¼Ğ±Ğ°Ğ¸",
        "name:sd": "Ù…Ù…Ø¨Ø¦ÙŠ",
        "name:sk": "Bombaj",
        "name:sr": "ĞœÑƒĞ¼Ğ±Ğ°Ñ˜",
        "name:ta": "à®®à¯à®®à¯à®ªà¯ˆ",
        "name:te": "à°®à±à°‚à°¬à±ˆ",
        "name:uk": "ĞœÑƒĞ¼Ğ±Ğ°Ñ—",
        "name:ur": "Ù…Ù…Ø¨Ø¦ÛŒ",
        "name:zh": "å­Ÿä¹°",
        "old_name": "Bombay",
        "old_name:ar": "Ø¨ÙˆÙ…Ø¨Ø§ÙŠ",
        "old_name:eo": "Bombajo",
        "old_name:fa": "Ø¨Ù…Ø¨Ø¦ÛŒ",
        "old_name:fr": "Bombai",
        "old_name:mzn": "Ø¨Ù…Ø¨Ø¦ÛŒ",
        "old_name:oc": "Bombai",
        "old_name:pl": "Bombaj",
        "old_name:sr": "Ğ‘Ğ¾Ğ¼Ğ±Ğ°Ñ˜",
        "old_name:ur": "Ø¨Ù…Ø¨Ø¦ÛŒ",
        "place": "city",
        "place:cca": "a1",
        "population": "12442373",
        "rank": "0",
        "source": "https://en.wikipedia.org/wiki/Mumbai",
        "source:name:oc": "Lo CongrÃ¨s",
        "source:old_name:oc": "Lo CongrÃ¨s",
        "source:population": "2011 Census of India",
        "wikidata": "Q1156",
        "wikipedia": "en:Mumbai"
      },
      "geometry": {
        "type": "Point",
        "coordinates": [
          72.8773928,
          19.0759899
        ]
      },
      "id": "node/16173235"
    },
    {
      "type": "Feature",
      "properties": {
        "@id": "node/25248662",
        "alt_name": "åŒ—äº¬",
        "alt_name:cs": "Pej-Å¥ing",
        "alt_name:en": "Peking",
        "alt_name:eo": "BejÄino",
        "alt_name:fr": "Beijing",
        "alt_name:is": "Peking",
        "alt_name:sv": "Peking",
        "capital": "yes",
        "gns:ADM1": "22",
        "gns:DSG": "ADM1",
        "gns:UFI": "-1898545",
        "gns:UNI": "9310007",
        "name": "åŒ—äº¬å¸‚",
        "name:af": "Beijing",
        "name:am": "á‰¤á‹ªáŒ‚áŠ•áŒ",
        "name:an": "PequÃ­n",
        "name:ang": "BeÈcinÈ",
        "name:ar": "Ø¨ÙƒÙŠÙ†",
        "name:arz": "Ø¨ÙŠÙƒÙŠÙ†",
        "name:ast": "BeixÃ­n",
        "name:ay": "Pekin'",
        "name:az": "Pekin",
        "name:ba": "ĞŸĞµĞºĞ¸Ğ½",
        "name:bat-smg": "PekÄ—ns",
        "name:bcl": "Beijing",
        "name:be": "ĞŸĞµĞºÑ–Ğ½",
        "name:be-tarask": "ĞŸÑĞºÑ–Ğ½",
        "name:bg": "ĞŸĞµĞºĞ¸Ğ½",
        "name:bjn": "PÃ©ycing",
        "name:bn": "à¦¬à§‡à¦‡à¦œà¦¿à¦‚",
        "name:bo": "à½”à½ºà¼‹à½…à½²à½„à¼‹à½‚à¾²à½¼à½„à¼‹à½à¾±à½ºà½¢à¼",
        "name:bpy": "à¦¬à§‡à¦‡à¦œà¦¿à¦‚",
        "name:br": "Beijing",
        "name:ca": "PequÃ­n",
        "name:cbk-zam": "PekÃ­n",
        "name:cdo": "BÃ¡eÌ¤k-gÄ­ng",
        "name:ceb": "Beijing",
        "name:ckb": "Ù¾ÛÚ©Û•Ù†",
        "name:crh": "Pekin",
        "name:cs": "Peking",
        "name:cv": "ĞŸĞµĞºĞ¸Ğ½",
        "name:cy": "Beijing",
        "name:da": "Beijing",
        "name:de": "Peking",
        "name:dv": "Ş„Ş©Ş–Ş¨Ş‚Ş°Ş",
        "name:el": "Î ÎµÎºÎ¯Î½Î¿",
        "name:en": "Beijing",
        "name:eo": "Pekino",
        "name:es": "PekÃ­n",
        "name:et": "Peking",
        "name:eu": "Pekin",
        "name:ext": "PequÃ­n",
        "name:fa": "Ù¾Ú©Ù†",
        "name:fi": "Peking",
        "name:fo": "Beijing",
        "name:fr": "PÃ©kin",
        "name:frp": "PÃ¨quin",
        "name:ga": "BÃ©ising",
        "name:gan": "åŒ—äº¬",
        "name:gd": "Beijing",
        "name:gl": "PequÃ­n - åŒ—äº¬",
        "name:gn": "PekÄ©",
        "name:gu": "àª¬à«‡àª‡àªœàª¿àª‚àª—",
        "name:gv": "Beijing",
        "name:hak": "Pet-kÃ®n",
        "name:haw": "Beijing",
        "name:he": "×‘×™×™×’'×™×Ÿ",
        "name:hi": "à¤¬à¥€à¤œà¤¿à¤‚à¤—",
        "name:hif": "Beijing",
        "name:hr": "Peking",
        "name:ht": "Peken",
        "name:hu": "Peking",
        "name:hy": "ÕŠÕ¥Õ¯Õ«Õ¶",
        "name:ia": "Beijing",
        "name:id": "Beijing",
        "name:ilo": "Beijing",
        "name:io": "Beijing",
        "name:is": "Beijing",
        "name:it": "Pechino",
        "name:ja": "åŒ—äº¬å¸‚",
        "name:jbo": "beidjin",
        "name:jv": "Beijing",
        "name:ka": "áƒáƒ”áƒ™áƒ˜áƒœáƒ˜",
        "name:kab": "Pekin",
        "name:kk": "Ğ‘ĞµĞ¹Ğ¶Ñ–Ò£",
        "name:kl": "Beijing",
        "name:km": "á”áŸ‰áŸá€á¶áŸ†á„",
        "name:kn": "à²¬à³€à²œà²¿à²‚à²—à³",
        "name:ko": "ë² ì´ì§• ì‹œ",
        "name:ku": "PekÃ®n",
        "name:kv": "ĞŸĞµĞºĞ¸Ğ½",
        "name:kw": "Beijing",
        "name:la": "Pechinum",
        "name:lez": "ĞŸĞµĞºĞ¸Ğ½",
        "name:lij": "Pechin",
        "name:lmo": "Pechin",
        "name:lo": "àº›àº±àºàºàº´à»ˆàº‡",
        "name:lt": "Pekinas",
        "name:lv": "Pekina",
        "name:lzh": "åŒ—äº¬å¸‚",
        "name:mg": "Beijing",
        "name:mhr": "ĞŸĞµĞºĞ¸Ğ½",
        "name:mi": "Beijing",
        "name:mk": "ĞŸĞµĞºĞ¸Ğ½Ğ³",
        "name:ml": "à´¬àµ†à´¯àµâ€Œà´œà´¿à´™àµà´™àµ",
        "name:mn": "Ğ‘ÑÑĞ¶Ğ¸Ğ½",
        "name:mr": "à¥€à¤œà¤¿à¤‚à¤—",
        "name:ms": "Beijing",
        "name:mwl": "Pequin",
        "name:my": "á€•á€±á€€á€»á€„á€ºá€¸á€™á€¼á€­á€¯á€·",
        "name:mzn": "Ù¾Ú©Ù†",
        "name:na": "Beijing",
        "name:nah": "Pequin",
        "name:nan": "Pak-kiaâ¿-chhÄ«",
        "name:ne": "à¤¬à¥‡à¤‡à¤œà¤¿à¤™",
        "name:nl": "Peking",
        "name:nn": "Beijing",
        "name:no": "Beijing",
        "name:nov": "Beyjing",
        "name:nrm": "PÃ©qÃ¹in",
        "name:oc": "Pequin",
        "name:os": "ĞŸĞµĞºĞ¸Ğ½",
        "name:pa": "à¨¬à©€à¨œà¨¿à©°à¨—",
        "name:pam": "Beijing",
        "name:pap": "Bejing",
        "name:pdc": "Beijing",
        "name:pl": "Pekin",
        "name:pms": "Pechin",
        "name:pnb": "Ø¨ÛŒØ¬Ù†Ú¯",
        "name:ps": "Ø¨ÛØ¬Ù†Ú«",
        "name:pt": "Pequim",
        "name:qu": "Pikkin",
        "name:ro": "Beijing",
        "name:roa-rup": "Beijing",
        "name:roa-tara": "Pechine",
        "name:ru": "ĞŸĞµĞºĞ¸Ğ½",
        "name:rue": "ĞŸĞµĞºÑ–Ğ½Ò‘",
        "name:sa": "à¤¬à¥€à¤œà¤¿à¤™à¥à¤—à¥",
        "name:sah": "ĞŸĞµĞºĞ¸Ğ½",
        "name:sc": "Beijing",
        "name:scn": "Pechinu",
        "name:sco": "Beijing",
        "name:si": "à¶¶à·™à¶ºà·’à¶¢à·’à¶‚",
        "name:sk": "Peking",
        "name:sl": "Peking",
        "name:so": "Beijing",
        "name:sq": "Pekini",
        "name:sr": "ĞŸĞµĞºĞ¸Ğ½Ğ³",
        "name:srn": "Beijing",
        "name:su": "Beijing",
        "name:sv": "Beijing",
        "name:sw": "Beijing",
        "name:szl": "BejdÅ¼ing",
        "name:ta": "à®ªà¯†à®¯à¯à®œà®¿à®™à¯",
        "name:te": "à°¬à±€à°œà°¿à°‚à°—à±",
        "name:tg": "ĞŸĞµĞºĞ¸Ğ½",
        "name:th": "à¸›à¸±à¸à¸à¸´à¹ˆà¸‡",
        "name:tk": "Pekin",
        "name:tl": "Beijing",
        "name:tpi": "Beijing",
        "name:tr": "Pekin",
        "name:tt": "ĞŸĞµĞºĞ¸Ğ½",
        "name:ug": "Ø¨ÛÙŠØ¬Ù‰Ú­ Ø´Û•Ú¾Ù‰Ø±Ù‰",
        "name:uk": "ĞŸĞµĞºÑ–Ğ½",
        "name:ur": "Ø¨ÛŒØ¬Ù†Ú¯",
        "name:uz": "Pekin",
        "name:vi": "Báº¯c Kinh",
        "name:war": "Beijing",
        "name:wuu": "åŒ—äº¬",
        "name:xal": "Ğ‘Ó™Ó™Ò—Ò£ Ğ±Ğ°Ğ»Ò»ÑĞ½",
        "name:xmf": "áƒáƒ”áƒ™áƒ˜áƒœáƒ˜",
        "name:yi": "×‘×™×™×–×©×™× ×’",
        "name:yo": "Beijing",
        "name:yue": "åŒ—äº¬",
        "name:za": "Baekging",
        "name:zh": "åŒ—äº¬å¸‚",
        "name:zh-Hans": "åŒ—äº¬å¸‚",
        "name:zh_pinyin": "BÄ›ijÄ«ng shÃ¬",
        "note": "nodeä¸é€‚ç”¨admin_levelï¼Œæ•…åˆ é™¤",
        "old_name": "åŒ—å¹³",
        "old_name:ku": "Komara Gel a Ã‡Ã®nÃª",
        "old_name:vi": "Báº¯c BÃ¬nh",
        "place": "city",
        "population": "19612368",
        "population:date": "2010-11-01",
        "rank": "0",
        "ref": "äº¬",
        "ref:en": "BJ",
        "ref:vi": "Kinh",
        "wikidata": "Q956",
        "wikipedia": "en:Beijing"
      },
      "geometry": {
        "type": "Point",
        "coordinates": [
          116.7185213,
          39.9020803
        ]
      },
      "id": "node/25248662"
    },
    {
      "type": "Feature",
      "properties": {
        "@id": "node/26700977",
        "description": "Newport (Casnewydd) is a city in south east Wales, on the River Usk. 19 km northeast of Cardiff, it is the third largest city in Wales, and forms part of the Cardiff-Newport metropolitan area with a population of 1,097,000.",
        "is_in": "Newport, United Kingdom",
        "is_in:continent": "Europe",
        "is_in:country": "United Kingdom",
        "is_in:country_code": "GB",
        "is_in:historic_county": "Monmouthshire",
        "is_in:preserved_county": "Gwent",
        "name": "Newport",
        "name:be": "ĞÑŒÑĞ¿Ğ°Ñ€Ñ‚",
        "name:br": "Casnewydd",
        "name:cy": "Casnewydd",
        "name:el": "ÎÎ·Î¿ÏÏ€Î¿ÏÏ„",
        "name:en": "Newport",
        "name:hu": "Newport",
        "name:ja": "ãƒ‹ãƒ¥ãƒ¼ãƒãƒ¼ãƒˆ",
        "name:ko": "ë‰´í¬íŠ¸",
        "name:la": "Novus Burgus",
        "name:mk": "ĞŠÑƒĞ¿Ğ¾Ñ€Ñ‚",
        "name:ru": "ĞÑŒÑĞ¿Ğ¾Ñ€Ñ‚",
        "name:sr": "ĞŠÑƒĞ¿Ğ¾Ñ€Ñ‚",
        "name:uk": "ĞÑŒÑĞ¿Ğ¾Ñ€Ñ‚",
        "place": "city",
        "population": "306,844",
        "postal_code": "NP",
        "source": "Nomis;ONS",
        "website": "http://www.newport.gov.uk/en/Leisure-Tourism/Visit-Newport/Visit-Newport.aspx",
        "wikidata": "Q101254",
        "wikipedia": "en:Newport"
      },
      "geometry": {
        "type": "Point",
        "coordinates": [
          -2.9974967,
          51.5882332
        ]
      },
      "id": "node/26700977"
    },
    {
      "type": "Feature",
      "properties": {
        "@id": "node/27565124",
        "admin_level": "4",
        "alt_name:eo": "Lejgoso",
        "capital": "4",
        "ele": "5",
        "is_in:country": "Nigeria",
        "is_in:iso_3166_2": "NG-LA",
        "name": "Lagos",
        "name:ar": "Ù„Ø§ØºÙˆØ³",
        "name:ckb": "Ù„Ø§Ú¯Û†Ø³",
        "name:de": "Lagos",
        "name:el": "Î›Î¬Î³Î¿Ï‚",
        "name:eo": "Lagoso",
        "name:hi": "à¤²à¤¾à¤—à¥‹à¤¸à¥",
        "name:it": "Lagos",
        "name:kn": "à²²à²¾à²—à³‹à²¸à³",
        "name:ko": "ë¼ê³ ìŠ¤",
        "name:oc": "Lagos",
        "name:pl": "Lagos",
        "name:ru": "Ğ›Ğ°Ğ³Ğ¾Ñ",
        "name:uk": "Ğ›Ğ°Ò‘Ğ¾Ñ",
        "place": "city",
        "population": "10404112",
        "rank": "0",
        "source:name:oc": "Lo CongrÃ¨s",
        "source:population": "wikipedia, calculated 2012",
        "wikidata": "Q8673",
        "wikipedia": "en:Lagos"
      },
      "geometry": {
        "type": "Point",
        "coordinates": [
          3.3941795,
          6.4550575
        ]
      },
      "id": "node/27565124"
    },
    {
      "type": "Feature",
      "properties": {
        "@id": "node/29939632",
        "admin_level": "2",
        "capital": "yes",
        "capital_ISO3166-1": "yes",
        "is_in:continent": "Asia",
        "is_in:country": "Indonesia",
        "is_in:country_code": "ID",
        "is_in:island": "Java",
        "is_in:iso_3166_2": "ID-JK",
        "name": "Jakarta",
        "name:af": "Djakarta",
        "name:am": "áŒƒáŠ«áˆ­á‰³",
        "name:ar": "Ø¬Ø§ÙƒØ±ØªØ§",
        "name:arz": "Ø¬Ø§ÙƒØ§Ø±ØªØ§",
        "name:az": "Cakarta",
        "name:ba": "Ğ”Ğ¶Ğ°ĞºĞ°Ñ€Ñ‚Ğ°",
        "name:bat-smg": "DÅ¾akarta",
        "name:be": "Ğ”Ğ¶Ğ°ĞºĞ°Ñ€Ñ‚Ğ°",
        "name:bg": "Ğ”Ğ¶Ğ°ĞºĞ°Ñ€Ñ‚Ğ°",
        "name:bn": "à¦œà¦¾à¦•à¦¾à¦°à§à¦¤à¦¾",
        "name:bo": "à½Šà¼‹à½à½¢à¼‹à½à¼",
        "name:bs": "DÅ¾akarta",
        "name:ckb": "Ø¬Ø§Ú©Ø§Ø±ØªØ§",
        "name:de": "Jakarta",
        "name:el": "Î¤Î¶Î±ÎºÎ¬ÏÏ„Î±",
        "name:en": "Jakarta",
        "name:eo": "Äœakarto",
        "name:es": "Yakarta",
        "name:fa": "Ø¬Ø§Ú©Ø§Ø±ØªØ§",
        "name:fr": "Jakarta",
        "name:ga": "IacÃ¡rta",
        "name:gl": "Iacarta - Jakarta",
        "name:gu": "àªœàª¾àª•àª¾àª°à«àª¤àª¾",
        "name:hak": "NgÃ¢-kÃ¢-thaÌt SÃº-tÃ» ThiÌt-khÃ®",
        "name:he": "×’'×§×¨×˜×”",
        "name:hi": "à¤œà¤•à¤¾à¤°à¥à¤¤à¤¾",
        "name:hu": "Jakarta",
        "name:hy": "Õ‹Õ¡Õ¯Õ¡Ö€Õ¿Õ¡",
        "name:id": "Jakarta",
        "name:is": "Djakarta",
        "name:it": "Giacarta",
        "name:ja": "ã‚¸ãƒ£ã‚«ãƒ«ã‚¿",
        "name:jbo": ".djakartas.",
        "name:ka": "áƒ¯áƒáƒ™áƒáƒ áƒ¢áƒ",
        "name:kk": "Ğ”Ğ¶Ğ°ĞºĞ°Ñ€Ñ‚Ğ°",
        "name:km": "á…á¶á€á¶ášáá¶",
        "name:kn": "à²œà²•à²¾à²°à³à²¤",
        "name:ko": "ìì¹´ë¥´íƒ€",
        "name:ku": "Cakarta",
        "name:lmo": "Giacarta",
        "name:lt": "DÅ¾akarta",
        "name:lv": "DÅ¾akarta",
        "name:mhr": "Ğ”Ğ¶Ğ°ĞºĞ°Ñ€Ñ‚Ğ°",
        "name:mk": "ĞĞ°ĞºĞ°Ñ€Ñ‚Ğ°",
        "name:ml": "à´œà´•àµà´•à´¾àµ¼à´¤àµà´¤",
        "name:mn": "Ğ–Ğ°ĞºĞ°Ñ€Ñ‚Ğ°",
        "name:mr": "à¤œà¤•à¤¾à¤°à¥à¤¤à¤¾",
        "name:mwl": "Jacarta",
        "name:my": "á€‚á€»á€€á€¬á€á€¬á€™á€¼á€­á€¯á€·",
        "name:mzn": "Ø¬Ø§Ú©Ø§Ø±ØªØ§",
        "name:nah": "Yakarta",
        "name:oc": "Jakarta",
        "name:os": "Ğ”Ğ¶Ğ°ĞºĞ°Ñ€Ñ‚Ã¦",
        "name:pl": "DÅ¼akarta",
        "name:pms": "Giacarta",
        "name:pnb": "Ø¬Ú©Ø§Ø±ØªÛ",
        "name:ps": "Ø¬Ú©Ø§Ø±ØªØ§",
        "name:pt": "Jacarta",
        "name:roa-tara": "Giacarta",
        "name:ru": "Ğ”Ğ¶Ğ°ĞºĞ°Ñ€Ñ‚Ğ°",
        "name:rue": "Ğ”Ğ¶Ğ°ĞºĞ°Ñ€Ñ‚Ğ°",
        "name:sa": "à¤œà¤•à¤¾à¤°à¥à¤¤à¤¾",
        "name:sah": "Ğ”ÑŒĞ°ĞºĞ°Ñ€Ñ‚Ğ°",
        "name:sh": "DÅ¾akarta",
        "name:sk": "DÅ¾akarta",
        "name:sl": "DÅ¾akarta",
        "name:sq": "Xhakarta",
        "name:sr": "ĞĞ°ĞºĞ°Ñ€Ñ‚Ğ°",
        "name:sv": "Jakarta",
        "name:szl": "DÅ¼akarta",
        "name:ta": "à®œà®•à®¾à®°à¯à®¤à¯à®¤à®¾",
        "name:te": "à°œà°•à°¾à°°à±à°¤à°¾",
        "name:th": "à¸ˆà¸²à¸à¸²à¸£à¹Œà¸•à¸²",
        "name:tr": "Cakarta",
        "name:ug": "Ø¬Ø§ÙƒØ§Ø±ØªØ§",
        "name:uk": "Ğ”Ğ¶Ğ°ĞºĞ°Ñ€Ñ‚Ğ°",
        "name:ur": "Ø¬Ú©Ø§Ø±ØªÛ",
        "name:vec": "Xacarta",
        "name:yi": "×“×–×©××§××¨×˜×",
        "name:yue": "è€¶åŠ é”",
        "name:za": "Yajgyadaz",
        "name:zh": "é›…åŠ è¾¾",
        "official_name": "Daerah Khusus Ibukota Jakarta",
        "old_name": "Batavia",
        "place": "city",
        "population": "10467629",
        "population:date": "2018",
        "source:name:oc": "Lo CongrÃ¨s",
        "source:population": "https://jakarta.bps.go.id/dynamictable/2019/09/16/58/jumlah-penduduk-provinsi-dki-jakarta-menurut-kelompok-umur-dan-jenis-kelamin-2018-.html",
        "website": "https://www.jakarta.go.id/",
        "wikidata": "Q3630",
        "wikipedia": "en:Jakarta"
      },
      "geometry": {
        "type": "Point",
        "coordinates": [
          106.827183,
          -6.1753942
        ]
      },
      "id": "node/29939632"
    },
    {
      "type": "Feature",
      "properties": {
        "@id": "node/30674098",
        "IBGE:GEOCODIGO": "3550308",
        "capital": "4",
        "ele": "760",
        "flag": "http://upload.wikimedia.org/wikipedia/commons/4/4b/Bandeira_da_cidade_de_S%C3%A3o_Paulo.svg",
        "is_in": "SÃ£o Paulo,Brasil",
        "is_in:continent": "South America",
        "is_in:country": "Brazil",
        "is_in:country_code": "BR",
        "is_in:state": "SÃ£o Paulo",
        "is_in:state_code": "SP",
        "loc_name": "Sampa",
        "name": "SÃ£o Paulo",
        "name:ab": "Ğ¡Ğ°Ğ½-ĞŸĞ°ÑƒĞ»Ñƒ",
        "name:am": "áˆ³á‹ á“á‹áˆ‰",
        "name:ar": "Ø³Ø§Ùˆ Ø¨Ø§ÙˆÙ„Ùˆ",
        "name:ay": "San Pauluw",
        "name:az": "San Paulo",
        "name:ba": "Ğ¡Ğ°Ğ½-ĞŸĞ°ÑƒĞ»Ñƒ",
        "name:be": "Ğ¡Ğ°Ğ½-ĞŸĞ°ÑĞ»Ñƒ",
        "name:bg": "Ğ¡Ğ°Ğ¾ ĞŸĞ°ÑƒĞ»Ğ¾",
        "name:bn": "à¦¸à¦¾à¦à¦‰ à¦ªà¦¾à¦‰à¦²à§",
        "name:ce": "Ğ¡Ğ°Ğ½-ĞŸĞ°ÑƒĞ»Ñƒ",
        "name:cv": "Ğ¡Ğ°Ğ½-ĞŸĞ°ÑƒĞ»Ñƒ",
        "name:de": "SÃ£o Paulo",
        "name:dv": "ŞŞ¦Ş‡Ş® Ş•Ş¦Ş‡ŞªŞŞ¯",
        "name:el": "Î£Î¬Î¿ Î Î¬Î¿Î»Î¿",
        "name:en": "SÃ£o Paulo",
        "name:eo": "San-PaÅ­lo",
        "name:es": "San Pablo",
        "name:fa": "Ø³Ø§Ø¦ÙˆÙ¾Ø§Ø¦ÙˆÙ„Ùˆ",
        "name:fr": "SÃ£o Paulo",
        "name:gl": "San Paulo",
        "name:he": "×¡××• ×¤××•×œ×•",
        "name:hi": "à¤¸à¤¾à¤“ à¤ªà¤¾à¤‰à¤²à¥‹",
        "name:hy": "ÕÕ¡Õ¶ ÕŠÕ¡Õ¸Ö‚Õ¬Õ¸",
        "name:io": "Sao Paulo",
        "name:it": "San Paolo",
        "name:ja": "ã‚µãƒ³ãƒ‘ã‚¦ãƒ­",
        "name:jbo": ".saupaulos.",
        "name:ka": "áƒ¡áƒáƒœ-áƒáƒáƒ£áƒšáƒ£",
        "name:kk": "Ğ¡Ğ°Ğ½-ĞŸĞ°ÑƒĞ»Ñƒ",
        "name:kn": "à²¸à²¾à²µà³Š à²ªà³Œà²²à³Š",
        "name:ko": "ìƒíŒŒìš¸ë£¨",
        "name:kv": "Ğ¡Ğ°Ğ½-ĞŸĞ°ÑƒĞ»Ñƒ",
        "name:la": "Paulopolis",
        "name:lt": "San Paulas",
        "name:lv": "Sanpaulu",
        "name:mk": "Ğ¡Ğ°Ğ¾ ĞŸĞ°Ğ¾Ğ»Ğ¾",
        "name:ml": "à´¸à´¾à´µàµ‹ à´ªàµ‹à´³àµ‹",
        "name:mn": "Ğ¡Ğ°Ğ½-ĞŸĞ°ÑƒĞ»Ñƒ",
        "name:mr": "à¤¸à¤¾à¤“ à¤ªà¤¾à¤‰à¤²à¥‹",
        "name:ne": "à¤¸à¤¾à¤“ à¤ªà¤¾à¤‰à¤²à¥‹",
        "name:oc": "SÃ£o Paulo",
        "name:os": "Ğ¡Ğ°Ğ½-ĞŸĞ°ÑƒĞ»Ñƒ",
        "name:pa": "à¨¸à¨¾à¨“ à¨ªà¨¾à¨“à¨²à©‹",
        "name:pl": "SÃ£o Paulo",
        "name:pt": "SÃ£o Paulo",
        "name:ru": "Ğ¡Ğ°Ğ½-ĞŸĞ°ÑƒĞ»Ñƒ",
        "name:sa": "à¤¸à¤¾à¤“ à¤ªà¤¾à¤“à¤²à¥‹",
        "name:sh": "Sao Paulo",
        "name:sr": "Ğ¡Ğ°Ğ¾ ĞŸĞ°ÑƒĞ»Ğ¾",
        "name:ta": "à®šà®¾à®µà¯‹ à®ªà®¾à®µà¯à®²à¯‹",
        "name:tg": "Ğ¡Ğ°Ğ½-ĞŸĞ°ÑƒĞ»Ñƒ",
        "name:th": "à¹€à¸‹à¸²à¹€à¸›à¸²à¸¥à¸¹",
        "name:tk": "San-Paulu",
        "name:tr": "Ğ¡Ğ°Ğ½ ĞŸĞ°ÑƒĞ»Ñƒ",
        "name:tt": "Ğ¡Ğ°Ğ½-ĞŸĞ°ÑƒĞ»Ñƒ",
        "name:ug": "San Pawlo",
        "name:uk": "Ğ¡Ğ°Ğ½-ĞŸĞ°ÑƒĞ»Ñƒ",
        "name:ur": "Ø³Ø§Ø¤ Ù¾Ø§Ù„Ùˆ",
        "name:uz": "San-Paulu",
        "name:wa": "Sawo PÃ¥lo",
        "name:yi": "×¡××• ×¤××•×œ×",
        "name:yo": "Sao Paulo",
        "name:zh": "è–ä¿ç¾…",
        "old_name": "SÃ£o Paulo de Piratininga",
        "place": "city",
        "population": "12176866",
        "population:date": "2018",
        "short_name": "SÃ£o Paulo",
        "source": "IBGE",
        "source:name:oc": "Lo CongrÃ¨s",
        "source:population": "IBGE",
        "start_date": "1554-01-25",
        "state_capital": "yes",
        "website": "http://www.capital.sp.gov.br/",
        "wikidata": "Q174",
        "wikipedia": "pt:SÃ£o Paulo"
      },
      "geometry": {
        "type": "Point",
        "coordinates": [
          -46.6333824,
          -23.5506507
        ]
      },
      "id": "node/30674098"
    },
    {
      "type": "Feature",
      "properties": {
        "@id": "node/153418222",
        "census:population": "38658;2006",
        "ele": "222",
        "gnis:Class": "Populated Place",
        "gnis:County": "Champaign",
        "gnis:County_num": "019",
        "gnis:ST_alpha": "IL",
        "gnis:ST_num": "17",
        "gnis:id": "420182",
        "import_uuid": "bb7269ee-502a-5391-8056-e3ce0e66489c",
        "is_in": "Champaign,Illinois,Ill.,IL,USA",
        "name": "Urbana",
        "name:ru": "Ğ£Ñ€Ğ±Ğ°Ğ½Ğ°",
        "place": "city",
        "population": "41,250",
        "wikidata": "Q462184",
        "wikipedia": "en:Urbana, Illinois"
      },
      "geometry": {
        "type": "Point",
        "coordinates": [
          -88.207301,
          40.1117174
        ]
      },
      "id": "node/153418222"
    },
    {
      "type": "Feature",
      "properties": {
        "@id": "node/158288312",
        "census:population": "59082;2006",
        "ele": "139",
        "gnis:Class": "Populated Place",
        "gnis:County": "Oneida",
        "gnis:County_num": "065",
        "gnis:ST_alpha": "NY",
        "gnis:ST_num": "36",
        "gnis:id": "968324",
        "import_uuid": "bb7269ee-502a-5391-8056-e3ce0e66489c",
        "is_in": "Oneida,New York,N.Y.,NY,USA",
        "name": "Utica",
        "name:en": "Utica",
        "name:ru": "Ğ®Ñ‚Ğ¸ĞºĞ°",
        "name:uk": "Ğ®Ñ‚Ñ–ĞºĞ°",
        "place": "city",
        "population": "60,100",
        "wikidata": "Q2495519",
        "wikipedia": "en:Utica, New York"
      },
      "geometry": {
        "type": "Point",
        "coordinates": [
          -75.2326641,
          43.1009031
        ]
      },
      "id": "node/158288312"
    },
    {
      "type": "Feature",
      "properties": {
        "@id": "node/158374934",
        "census:population": "15604;2006",
        "gnis:feature_id": "1176171",
        "name": "Greensburg",
        "place": "city",
        "population": "14,192",
        "wikidata": "Q734974"
      },
      "geometry": {
        "type": "Point",
        "coordinates": [
          -79.5389289,
          40.3014581
        ]
      },
      "id": "node/158374934"
    },
    {
      "type": "Feature",
      "properties": {
        "@id": "node/158632434",
        "census:population": "10096;2006",
        "ele": "313",
        "gnis:Class": "Populated Place",
        "gnis:County": "Westmoreland",
        "gnis:County_num": "129",
        "gnis:ST_alpha": "PA",
        "gnis:ST_num": "42",
        "gnis:id": "1177998",
        "import_uuid": "bb7269ee-502a-5391-8056-e3ce0e66489c",
        "is_in": "Westmoreland,Pennsylvania,Pa.,PA,USA",
        "name": "Jeannette",
        "place": "city",
        "population": "9,133",
        "wikidata": "Q1187079",
        "wikipedia": "en:Jeannette, Pennsylvania"
      },
      "geometry": {
        "type": "Point",
        "coordinates": [
          -79.6153198,
          40.3281247
        ]
      },
      "id": "node/158632434"
    },
    {
      "type": "Feature",
      "properties": {
        "@id": "node/244077729",
        "capital": "4",
        "gns:ADM1": "32",
        "gns:DSG": "ADM2",
        "gns:UFI": "-1900350",
        "gns:UNI": "10071832",
        "name": "æˆéƒ½å¸‚",
        "name:bn": "à¦šà§‡à¦‚à¦—à§à¦¡à§",
        "name:ca": "Txengdu",
        "name:cs": "ÄŒcheng-tu",
        "name:da": "Chengdu",
        "name:de": "Chengdu",
        "name:en": "Chengdu",
        "name:eo": "Äˆengduo",
        "name:es": "ChengdÃº",
        "name:et": "Chengdu",
        "name:fi": "Chengdu",
        "name:fr": "Chengdu",
        "name:he": "×¦'× ×’×“×•",
        "name:hi": "à¤šà¥†à¤‚à¤—à¥à¤¡à¥",
        "name:ja": "æˆéƒ½å¸‚",
        "name:kn": "à²šà³†à²‚à²—à³à²¡à³",
        "name:lt": "ÄŒengdu",
        "name:nl": "Chengdu",
        "name:oc": "Chengdu",
        "name:ru": "Ğ§ÑĞ½Ğ´Ñƒ",
        "name:sr": "Ğ§ĞµĞ½Ğ³Ğ´Ñƒ",
        "name:uk": "Ğ§ĞµĞ½Ğ´Ñƒ",
        "name:vi": "ThÃ nh ÄÃ´",
        "name:zh": "æˆéƒ½å¸‚",
        "name:zh_pinyin": "ChÃ©ngdÅ« ShÃ¬",
        "place": "city",
        "population": "17700000",
        "source:name:oc": "Lo CongrÃ¨s",
        "wikidata": "Q30002",
        "wikipedia": "en:Chengdu"
      },
      "geometry": {
        "type": "Point",
        "coordinates": [
          104.0633717,
          30.6598628
        ]
      },
      "id": "node/244077729"
    },
    {
      "type": "Feature",
      "properties": {
        "@id": "node/244080443",
        "alt_name": "å¹¿å·",
        "alt_name:cs": "Kuang-Äou",
        "alt_name:en": "Canton",
        "capital": "4",
        "gns:ADM1": "30",
        "gns:DSG": "ADM2",
        "gns:UFI": "-1907162",
        "gns:UNI": "6722114",
        "name": "å¹¿å·å¸‚",
        "name:ace": "Guangzhou",
        "name:af": "Guangzhou",
        "name:am": "áŒ“áŠ•áŒá‹¦á‹",
        "name:ar": "ØºÙˆØ§Ù†Ø²Ùˆ",
        "name:arz": "Ø¬ÙˆØ§Ù†Ø²Ùˆ",
        "name:ast": "CantÃ³n",
        "name:az": "QuanÃ§jou",
        "name:azb": "Ù‚ÙˆØ§Ù†Ù‚Ú˜Ùˆ",
        "name:ba": "Ğ“ÑƒĞ°Ğ½Ñ‡Ğ¶Ğ¾Ñƒ",
        "name:be": "Ğ“ÑƒĞ°Ğ½Ñ‡Ğ¶Ğ¾Ñƒ",
        "name:be-tarask": "Ğ“ÑƒĞ°Ğ½Ñ‡Ğ¶Ğ¾Ñ",
        "name:bg": "Ğ“ÑƒĞ°Ğ½Ğ´Ğ¶Ğ¾Ñƒ",
        "name:bm": "Guangzhou",
        "name:bn": "à¦•à§à¦¯à¦¼à¦¾à¦‚à¦šà§Œ",
        "name:bo": "à½€à½¼à½„à¼‹à½€à¾²à½¼à½ à½´à¼‹à½‚à¾²à½¼à½„à¼‹à½à¾±à½ºà½¢à¼",
        "name:br": "Guangzhou",
        "name:bs": "Guangzhou",
        "name:bxr": "Ğ“ÑƒĞ°Ğ½Ñ‡Ğ¶Ğ¾Ñƒ",
        "name:ca": "Canton",
        "name:cdo": "GuÅng-ciÅ­",
        "name:ce": "Ğ“ÑƒĞ°Ğ½Ñ‡Ğ¶Ğ¾Ñƒ",
        "name:ceb": "Guangzhou",
        "name:chy": "Guangzhou",
        "name:cs": "Kanton",
        "name:cy": "Guangzhou",
        "name:da": "Guangzhou",
        "name:de": "Guangzhou",
        "name:el": "ÎšÎ¿Ï…Î±Î½Î³ÎºÏ„ÏƒÏŒÎ¿Ï…",
        "name:en": "Guangzhou",
        "name:eo": "Kantono",
        "name:es": "CantÃ³n",
        "name:et": "Guangzhou",
        "name:eu": "Guangzhou",
        "name:ext": "CantÃ³n",
        "name:fa": "Ú¯ÙˆØ§Ù†Ú¯â€ŒÚ˜Ùˆ",
        "name:fi": "Kanton",
        "name:fj": "Guagzhou",
        "name:fo": "Guangzhou",
        "name:fr": "Canton",
        "name:frr": "Guangzhou",
        "name:ga": "Guangzhou",
        "name:gan": "å»£å·",
        "name:gl": "CantÃ³n, China",
        "name:got": "ğŒºğŒ°ğŒ½ğ„ğ‰",
        "name:ha": "Guangzhou",
        "name:hak": "KÃ³ng-chÃ»-sá¹³",
        "name:he": "×’×•×× ×’×’'×•××•",
        "name:hi": "à¤—à¥à¤µà¤¾à¤‚à¤—à¤à¥‹à¤‰",
        "name:hr": "Guangzhou",
        "name:hu": "Kanton",
        "name:hy": "Ô³Õ¸Ö‚Õ¡Õ¶Õ¹ÕªÕ¸Õ¸Ö‚",
        "name:id": "Guangzhou",
        "name:ie": "Guangzhou",
        "name:io": "Guangzhou",
        "name:is": "Guangzhou",
        "name:it": "Canton",
        "name:ja": "åºƒå·å¸‚",
        "name:ka": "áƒ’áƒ£áƒáƒœáƒ¯áƒáƒ£",
        "name:kaa": "Guangjow",
        "name:ki": "Guangzhou",
        "name:kk": "Ğ“ÑƒĞ°Ğ½Ñ‡Ğ¶Ğ¾Ñƒ",
        "name:kn": "à²•à³à²µà²¾à²‚à²—à³à²•à³à²¸à³Œ",
        "name:ko": "ê´‘ì €ìš°ì‹œ",
        "name:krc": "Ğ“ÑƒĞ°Ğ½Ñ‡Ğ¶Ğ¾Ñƒ",
        "name:ku": "Guangzhou",
        "name:kw": "Guangzhou",
        "name:ky": "Ğ“ÑƒĞ°Ğ½Ñ‡Ğ¶Ğ¾Ñƒ",
        "name:la": "Quancheum",
        "name:lb": "Guangzhou",
        "name:ln": "Guangzhou",
        "name:lo": "àºàº§à»ˆàº²àº‡à»‚àºˆàº§",
        "name:lt": "GuangdÅ¾ou",
        "name:lv": "GuandÅ¾ou",
        "name:mai": "à¤—à¥à¤µà¤¾à¤‚à¤—à¤à¥‹à¤‰",
        "name:mg": "Guangzhou",
        "name:mhr": "Ğ“ÑƒĞ°Ğ½Ñ‡Ğ¶Ğ¾Ñƒ",
        "name:mi": "Guangzhou",
        "name:ml": "à´—àµà´µà´¾à´™àµà´œàµ‹",
        "name:mn": "Ğ“ÑƒĞ°Ğ½Ğ¶Ğ¾Ñƒ",
        "name:mr": "à¤•à¥à¤µà¤¾à¤‚à¤—à¤šà¥Œ",
        "name:ms": "Guangzhou",
        "name:my": "á€€á€½á€™á€ºá€€á€»á€­á€¯á€¸á€™á€¼á€­á€¯á€·",
        "name:nan": "KÅ„g-chiu-chhÄ«",
        "name:ne": "à¤—à¥à¤µà¤¾à¤‚à¤—à¤à¥‹à¤‰",
        "name:nl": "Guangzhou",
        "name:nn": "Guangzhou",
        "name:no": "Guangzhou",
        "name:ny": "Guangzhou",
        "name:oc": "Canton",
        "name:os": "Ğ“ÑƒĞ°Ğ½Ñ‡Ğ¶Ğ¾Ñƒ",
        "name:pa": "à¨—à©à¨†à¨‚à¨—à¨œà¨¼à©‚",
        "name:pam": "Guangzhou",
        "name:pl": "Kanton",
        "name:pnb": "Ø´ÛŒÙ†ÛŒØ§Ù†Ú¯",
        "name:pt": "CantÃ£o",
        "name:qu": "Guangzhou",
        "name:ro": "Guangzhou",
        "name:ru": "Ğ“ÑƒĞ°Ğ½Ñ‡Ğ¶Ğ¾Ñƒ",
        "name:sah": "Ğ“ÑƒĞ°Ğ½Ğ´ÑŒĞ¾Ñƒ",
        "name:sco": "Guangzhou",
        "name:sh": "Guangzhou",
        "name:simple": "Guangzhou",
        "name:sk": "Kanton",
        "name:sl": "GuangdÅ¾ov",
        "name:sq": "Guangzhou",
        "name:sr": "Ğ“ÑƒĞ°Ğ½Ğ³ÑŸĞ¾Ñƒ",
        "name:sv": "Guangzhou",
        "name:sw": "Guangzhou",
        "name:szl": "KantÅ¯n",
        "name:ta": "à®•à¯à®µà®¾à®™à¯à®šà¯Œ",
        "name:th": "à¸à¸§à¹ˆà¸²à¸‡à¹‚à¸ˆà¸§",
        "name:tl": "Guangzhou",
        "name:tn": "Guangzhou",
        "name:tr": "Guangzhou",
        "name:tt": "Ğ“ÑƒĞ°Ò£Ò—Ñƒ",
        "name:ug": "Ú¯Û‡Ø§Ú­Ø¬Û‡ Ø´Û•Ú¾Ù‰Ø±Ù‰",
        "name:uk": "Ğ“ÑƒĞ°Ğ½Ñ‡Ğ¶Ğ¾Ñƒ",
        "name:ur": "Ú¯ÙˆØ§Ù†Ú¯Ú˜Ùˆ",
        "name:uz": "Guanchjou",
        "name:vep": "GuanÄÅ¾ou",
        "name:vi": "Quáº£ng ChÃ¢u",
        "name:war": "Guangzhou",
        "name:wo": "Guangzhou",
        "name:wuu": "å¹¿å·",
        "name:yue": "å»£å·",
        "name:za": "Gvangjcouh",
        "name:zh": "å¹¿å·å¸‚",
        "name:zh-Hans": "å¹¿å·å¸‚",
        "name:zh-Hant": "å»£å·å¸‚",
        "name:zh_classical": "å»£å·å¸‚",
        "name:zh_pinyin": "GuÄƒngzhÅu ShÃ¬",
        "old_name:bn": "à¦•à§à¦¯à¦¾à¦¨à§à¦Ÿà¦¨",
        "old_name:cs": "Kanton",
        "old_name:en": "Canton;Kwangchow",
        "old_name:hi": "à¤•à¥‡à¤¨à¥à¤¤à¥‹à¤¨",
        "old_name:io": "Kanton",
        "old_name:nl": "Kanton",
        "old_name:ru": "ĞšĞ°Ğ½Ñ‚Ğ¾Ğ½",
        "place": "city",
        "population": "14043500",
        "source:name:oc": "Lo CongrÃ¨s",
        "wikidata": "Q16572",
        "wikipedia": "en:Guangzhou"
      },
      "geometry": {
        "type": "Point",
        "coordinates": [
          113.2592945,
          23.1301964
        ]
      },
      "id": "node/244080443"
    },
    {
      "type": "Feature",
      "properties": {
        "@id": "node/244081648",
        "alt_name:cs": "Å ang-chaj",
        "capital": "4",
        "gns:ADM1": "23",
        "gns:DSG": "ADM1",
        "gns:UFI": "-1924470",
        "gns:UNI": "9309919",
        "int_name": "Shanghai",
        "name": "ä¸Šæµ·å¸‚",
        "name:af": "Sjanghai",
        "name:ar": "Ø´Ø§Ù†ØºÙ‡Ø§ÙŠ",
        "name:az": "Åanxay",
        "name:cdo": "SiÃ´ng-hÄi",
        "name:ceb": "Shanghai",
        "name:cs": "Å anghaj",
        "name:da": "Shanghai",
        "name:de": "Shanghai",
        "name:el": "Î£Î±Î³ÎºÎ¬Î·",
        "name:en": "Shanghai",
        "name:eo": "Åœanhajo",
        "name:es": "ShanghÃ¡i",
        "name:et": "Shanghai",
        "name:eu": "Shanghai",
        "name:fr": "ShÃ nghÇi",
        "name:gan": "ä¸Šæµ·",
        "name:hak": "SÃ´ng-hÃ³i",
        "name:he": "×©×× ×’×—××™",
        "name:hi": "à¤¶à¤‚à¤˜à¤¾à¤ˆ",
        "name:hu": "Shanghai",
        "name:ia": "Shanghai",
        "name:id": "Shanghai",
        "name:io": "Shanghai",
        "name:it": "Shanghai",
        "name:ja": "ä¸Šæµ·å¸‚",
        "name:ko": "ìƒí•˜ì´",
        "name:lt": "Å anchajus",
        "name:lzh": "ä¸Šæµ·å¸‚",
        "name:mi": "Hangahai",
        "name:ms": "Shanghai",
        "name:nan": "SiÅng-hÃ¡i-chhÄ«",
        "name:pl": "Szanghaj",
        "name:pt": "Xangai",
        "name:ru": "Ğ¨Ğ°Ğ½Ñ…Ğ°Ğ¹",
        "name:sk": "Å anghaj",
        "name:su": "Shanghai",
        "name:ta": "à®šà®¾à®™à¯à®•à®¾à®¯à¯",
        "name:th": "à¹€à¸‹à¸µà¹ˆà¸¢à¸‡à¹„à¸®à¹‰",
        "name:tl": "Shanghai",
        "name:tr": "Åanghay",
        "name:uk": "Ğ¨Ğ°Ğ½Ñ…Ğ°Ğ¹",
        "name:ur": "Ø´Ù†Ú¯Ú¾Ø§Ø¦ÛŒ",
        "name:vi": "ThÆ°á»£ng Háº£i",
        "name:wuu": "ä¸Šæµ·å¸‚",
        "name:yue": "ä¸Šæµ·",
        "name:zh": "ä¸Šæµ·å¸‚",
        "name:zh-Hans": "ä¸Šæµ·å¸‚",
        "name:zh-Hant": "ä¸Šæµ·å¸‚",
        "place": "city",
        "population": "15550000",
        "ref": "æ²ª",
        "ref:en": "SH",
        "ref:vi": "Há»—",
        "wikidata": "Q8686",
        "wikipedia": "en:Shanghai"
      },
      "geometry": {
        "type": "Point",
        "coordinates": [
          121.4692071,
          31.2322758
        ]
      },
      "id": "node/244081648"
    },
    {
      "type": "Feature",
      "properties": {
        "@id": "node/244082077",
        "capital": "4",
        "gns:ADM1": "28",
        "gns:DSG": "ADM1",
        "gns:UFI": "-1928568",
        "gns:UNI": "9309909",
        "name": "å¤©æ´¥å¸‚",
        "name:ar": "ØªÙŠØ§Ù†Ø¬ÙŠÙ†",
        "name:bn": "à¦¤à¦¿à§Ÿà¦¨à§à¦œà¦¿à¦¨",
        "name:ca": "Tientsin",
        "name:cs": "Tchien-Å¥in",
        "name:de": "Tianjin",
        "name:en": "Tianjin",
        "name:eo": "TjanÄino",
        "name:es": "Tianjin",
        "name:et": "Tianjin",
        "name:fi": "Tianjin",
        "name:fr": "Tianjin",
        "name:hi": "à¤¤à¤¿à¤¯à¤¨à¥à¤œà¤¿à¤¨",
        "name:it": "Tientsin",
        "name:ja": "å¤©æ´¥å¸‚",
        "name:kn": "à²¤à²¿à²¯à²¨à³à²œà²¿à²¨à³",
        "name:nl": "Tianjin",
        "name:oc": "Tianjin",
        "name:ru": "Ğ¢ÑĞ½ÑŒÑ†Ğ·Ğ¸Ğ½ÑŒ",
        "name:sr": "Ğ¢Ñ˜ĞµĞ½Ñ†Ğ¸Ğ½",
        "name:vi": "ThiÃªn TÃ¢n",
        "name:zh": "å¤©æ´¥å¸‚",
        "name:zh_pinyin": "TiÄnjÄ«n",
        "place": "city",
        "population": "15500000",
        "ref": "æ´¥",
        "ref:en": "TJ",
        "ref:vi": "TÃ¢n",
        "source:name:oc": "Lo CongrÃ¨s",
        "wikidata": "Q11736",
        "wikipedia": "zh:å¤©æ´¥å¸‚"
      },
      "geometry": {
        "type": "Point",
        "coordinates": [
          117.1951073,
          39.0856735
        ]
      },
      "id": "node/244082077"
    },
    {
      "type": "Feature",
      "properties": {
        "@id": "node/244082219",
        "capital": "4",
        "gns:ADM1": "12",
        "gns:DSG": "ADM2",
        "gns:UFI": "-1930780",
        "gns:UNI": "10069726",
        "int_name": "Wuhan",
        "name": "æ­¦æ±‰å¸‚",
        "name:ace": "Wuhan",
        "name:af": "Wuhan",
        "name:als": "Wuhan",
        "name:am": "á‹‰áˆƒáŠ•",
        "name:ar": "ÙˆÙˆÙ‡Ø§Ù†",
        "name:arc": "Ü˜Ü˜Ü—ÜÜ¢",
        "name:ast": "Wuhan",
        "name:az": "Uhan",
        "name:ba": "Ğ£Ñ…Ğ°Ğ½ÑŒ",
        "name:be": "Ğ£Ñ…Ğ°Ğ½ÑŒ",
        "name:bg": "Ğ£Ñ…Ğ°Ğ½",
        "name:bm": "Wuhan",
        "name:bn": "à¦‰à¦¹à¦¾à¦¨",
        "name:bo": "à½à½´à½ à½´à¼‹à½§à½“à¼‹à½‚à¾²à½¼à½„à¼‹à½à¾±à½ºà½¢à¼",
        "name:br": "Wuhan",
        "name:bxr": "Ğ£Ñ…Ğ°Ğ½ÑŒ",
        "name:ca": "Wuhan",
        "name:cdo": "Åª-hÃ¡ng",
        "name:ce": "Ğ£Ñ…Ğ°Ğ½ÑŒ",
        "name:ceb": "Wuhan",
        "name:chy": "Wuhan",
        "name:ckb": "ÙˆÙˆÚ¾Ø§Ù†",
        "name:cs": "Wu-chan",
        "name:cy": "Wuhan",
        "name:da": "Wuhan",
        "name:de": "Wuhan",
        "name:el": "ÎŸÏ…Ï‡Î¬Î½",
        "name:en": "Wuhan",
        "name:eo": "Vuhano",
        "name:es": "Wuhan",
        "name:et": "Wuhan",
        "name:eu": "Wuhan",
        "name:ext": "Wuhan",
        "name:fa": "ÙˆÙˆÙ‡Ø§Ù†",
        "name:fi": "Wuhan",
        "name:fj": "Wuhan",
        "name:fo": "Wuhan",
        "name:fr": "Wuhan",
        "name:ga": "Wuhan",
        "name:gan": "æ­¦æ±‰",
        "name:gl": "Wuhan",
        "name:got": "ğ…ğŒ¿ğŒ·ğŒ°ğŒ½",
        "name:gv": "Wuhan",
        "name:ha": "Wuhan",
        "name:hak": "VÃº-hon-sá¹³",
        "name:he": "×•×•×”××Ÿ",
        "name:hi": "à¤µà¥‚à¤¹à¤¾à¤¨",
        "name:hr": "Wuhan",
        "name:hu": "Vuhan",
        "name:hy": "ÕˆÖ‚Õ°Õ¡Õ¶",
        "name:id": "Wuhan",
        "name:is": "Wuhan",
        "name:it": "Wuhan",
        "name:ja": "æ­¦æ¼¢å¸‚",
        "name:jbo": "uuxan",
        "name:ka": "áƒ£áƒ®áƒáƒœáƒ˜",
        "name:kg": "Wuhan",
        "name:ki": "Wuhan",
        "name:kk": "Ğ£Ñ…Ğ°Ğ½ÑŒ",
        "name:kl": "Wuhan",
        "name:kn": "à²µà³à²¹à²¾à²¨à³",
        "name:ko": "ìš°í•œì‹œ",
        "name:ksh": "Wuhan",
        "name:ku": "Wuhan",
        "name:kw": "Wuhan",
        "name:ky": "Ğ£Ñ…Ğ°Ğ½ÑŒ",
        "name:la": "Wuhan",
        "name:lad": "Wuhan",
        "name:lb": "Wuhan",
        "name:lt": "Uhanas",
        "name:lv": "UhaÅ†a",
        "name:mdf": "Ğ£Ñ…Ğ°Ğ½ÑŒ",
        "name:mg": "Wuhan",
        "name:mhr": "Ğ£Ñ…Ğ°Ğ½ÑŒ",
        "name:mi": "Wuhan",
        "name:mk": "Ğ’ÑƒÑ…Ğ°Ğ½",
        "name:ml": "à´µàµ‚à´¹à´¾àµ»",
        "name:mn": "Ò®Ñ…Ğ°Ğ½ÑŒ",
        "name:mr": "à¤µà¥‚à¤¹à¤¾à¤¨",
        "name:ms": "Wuhan",
        "name:mwl": "Wuhan",
        "name:my": "á€á€°á€Ÿá€”á€·á€ºá€™á€¼á€­á€¯á€·",
        "name:mzn": "ÙˆÙˆÙ‡Ø§Ù†",
        "name:nah": "Wuhan",
        "name:nan": "BÃº-hÃ n-chhÄ«",
        "name:nl": "Wuhan",
        "name:nn": "Wuhan",
        "name:no": "Wuhan",
        "name:ny": "Wuhan",
        "name:oc": "Wuhan",
        "name:os": "Ğ£Ñ…Ğ°Ğ½ÑŒ",
        "name:pa": "à¨µà©‚à¨–à¨¼à¨¨",
        "name:pam": "Wuhan",
        "name:pl": "Wuhan",
        "name:pnb": "ÙˆÙˆÛØ§Ù†",
        "name:pt": "Wuhan",
        "name:qu": "Wuhan",
        "name:ro": "Wuhan",
        "name:ru": "Ğ£Ñ…Ğ°Ğ½ÑŒ",
        "name:sco": "Wuhan",
        "name:sh": "Wuhan",
        "name:sk": "Wu-chan",
        "name:sq": "Vuhani",
        "name:sr": "Ğ’ÑƒÑ…Ğ°Ğ½",
        "name:stq": "Wuhan",
        "name:sv": "Wuhan",
        "name:sw": "Wuhan",
        "name:szl": "Wuhan",
        "name:ta": "à®µà¯à®•à®¾à®©à¯",
        "name:th": "à¸­à¸¹à¹ˆà¸®à¸±à¹ˆà¸™",
        "name:tl": "Wuhan",
        "name:tn": "Wuhan",
        "name:tr": "Vuhan",
        "name:tt": "Ò®Ò»Ó™Ğ½",
        "name:ug": "Û‹Û‡Ø®Û•Ù† Ø´Û•Ú¾Ù‰Ø±Ù‰",
        "name:uk": "Ğ£Ñ…Ğ°Ğ½ÑŒ",
        "name:ur": "ÙˆÙˆÛØ§Ù†",
        "name:uz": "Uxan",
        "name:vi": "VÅ© HÃ¡n",
        "name:war": "Wuhan",
        "name:wo": "Wuhan",
        "name:wuu": "æ­¦æ±‰",
        "name:xal": "Ğ’ÑƒÑ…Ğ°Ğ½ Ğ±Ğ°Ğ»Ò»ÑĞ½",
        "name:yue": "æ­¦æ¼¢",
        "name:za": "Vujhan",
        "name:zh": "æ­¦æ±‰å¸‚",
        "name:zh-Hans": "æ­¦æ±‰",
        "name:zh-Hant": "æ­¦æ¼¢",
        "name:zh_pinyin": "WÇ”hÃ n shÃ¬",
        "place": "city",
        "population": "10670000",
        "source:name:oc": "Lo CongrÃ¨s",
        "wikidata": "Q11746",
        "wikipedia": "en:Wuhan"
      },
      "geometry": {
        "type": "Point",
        "coordinates": [
          114.2999353,
          30.5951051
        ]
      },
      "id": "node/244082219"
    },
    {
      "type": "Feature",
      "properties": {
        "@id": "node/244084673",
        "china_class": "prefecture-level city",
        "gns:ADM1": "04",
        "gns:DSG": "ADM2",
        "gns:UFI": "19388",
        "gns:UNI": "6668047",
        "int_name": "SÅ«zhÅu",
        "name": "è‹å·å¸‚",
        "name:af": "Suzhou",
        "name:ar": "Ø³ÙˆØ¬Ùˆ (Ù…Ø¯ÙŠÙ†Ø©)",
        "name:arz": "Ø³ÙˆØ²Ùˆ",
        "name:ast": "Suzhou",
        "name:be": "Ğ¡ÑƒÑ‡Ğ¶Ğ¾Ñ",
        "name:bg": "Ğ¡ÑƒĞ´Ğ¶Ğ¾Ñƒ",
        "name:br": "Suzhou",
        "name:ca": "Suzhou",
        "name:cdo": "SÅ­-ciÅ­",
        "name:ce": "Ğ¡ÑƒÑ‡Ğ¶Ğ¾Ñƒ",
        "name:ceb": "Suzhou Shi",
        "name:cs": "Su-Äou",
        "name:cy": "Suzhou",
        "name:da": "Suzhou",
        "name:de": "Suzhou",
        "name:el": "Î£Î¿Ï…Ï„ÏƒÏŒÎ¿Ï…",
        "name:en": "Suzhou",
        "name:eo": "SuÄoÅ­o",
        "name:es": "Suzhou",
        "name:et": "Suzhou",
        "name:eu": "Suzhou",
        "name:fa": "Ø³ÙˆÚ˜Ùˆ",
        "name:fi": "Suzhou",
        "name:fr": "Suzhou",
        "name:ga": "Suzhou",
        "name:gl": "Suzhou",
        "name:hak": "SÃ»-chÃ»-sá¹³",
        "name:he": "×¡×•×’'×•××•",
        "name:hi": "à¤¸à¥‚à¤à¥‹à¤Š",
        "name:hr": "Suzhou",
        "name:hu": "Szucsou",
        "name:hy": "ÕÕ¸Ö‚Õ¹ÕªÕ¸Õ¸Ö‚",
        "name:id": "Suzhou",
        "name:it": "Suzhou",
        "name:ja": "è˜‡å·å¸‚",
        "name:ki": "Suzhou",
        "name:kn": "à²¸à³‚à²à³Œ",
        "name:ko": "ì‘¤ì €ìš°ì‹œ",
        "name:la": "Suceu",
        "name:lt": "SudÅ¾ou",
        "name:lv": "SudÅ¾ou",
        "name:mg": "Suzhou",
        "name:ml": "à´¸àµà´´àµ—",
        "name:mn": "Ğ¡Ò¯Ğ¶Ğ¾Ñƒ",
        "name:ms": "Suzhou",
        "name:nan": "SoÍ˜-chiu-chhÄ«",
        "name:nl": "Suzhou",
        "name:nn": "Suzhou",
        "name:no": "Suzhou",
        "name:pa": "à¨¸à©‚à¨œà¨¼à©‚",
        "name:pl": "Suzhou",
        "name:pt": "Suzhou",
        "name:ro": "Suzhou",
        "name:ru": "Ğ¡ÑƒÑ‡Ğ¶Ğ¾Ñƒ",
        "name:sah": "Ğ¡ÑƒÑ‡Ğ¶Ğ¾Ñƒ",
        "name:sco": "Suzhou",
        "name:sh": "Suzhou",
        "name:sr": "Ğ¡ÑƒÑŸĞ¾Ñƒ",
        "name:sv": "Suzhou",
        "name:ta": "à®šà¯à®šà¯‹",
        "name:th": "à¸‹à¸¹à¹‚à¸ˆà¸§",
        "name:tl": "Suzhou",
        "name:tr": "Suzhou",
        "name:ug": "Ø³Û‡Ø¬Û‡ Ø´Û•Ú¾Ù‰Ø±Ù‰",
        "name:uk": "Ğ¡ÑƒÑ‡Ğ¶Ğ¾Ñƒ",
        "name:ur": "Ø³ÙˆÚ˜ÙˆÙˆ",
        "name:uz": "Suchjou",
        "name:vi": "TÃ´ ChÃ¢u",
        "name:war": "Suzhou",
        "name:wuu": "è‹å·å¸‚",
        "name:yue": "è˜‡å·",
        "name:zh": "è‹å·å¸‚",
        "name:zh_pinyin": "SÅ«zhÅu ShÃ¬",
        "old_name": "Soochow",
        "place": "city",
        "population": "10465994",
        "population:date": "2010-11-01",
        "wikidata": "Q42622",
        "wikipedia": "zh:è‹å·å¸‚"
      },
      "geometry": {
        "type": "Point",
        "coordinates": [
          120.5810725,
          31.3016935
        ]
      },
      "id": "node/244084673"
    },
    {
      "type": "Feature",
      "properties": {
        "@id": "node/245770582",
        "AND_a_nosr_p": "10010019",
        "name": "Faridkot",
        "name:en": "Faridkot",
        "name:he": "×¤×¨×™×“×§×•×˜",
        "name:hi": "à¤«à¤°à¥€à¤¦à¤•à¥‹à¤Ÿ",
        "name:ja": "ãƒ•ã‚¡ãƒªãƒ¼ãƒ‰ã‚³ãƒ¼ãƒˆ",
        "name:pa": "à¨«à¨¼à¨°à©€à¨¦à¨•à©‹à¨Ÿ",
        "name:ta": "à®ªà®°à®¿à®¤à¯à®•à¯‹à®Ÿà¯",
        "place": "city",
        "population": "87,695",
        "population:date": "2011",
        "postal_code": "151200",
        "source": "AND",
        "wikidata": "Q1780350",
        "wikipedia": "en:Faridkot, Punjab"
      },
      "geometry": {
        "type": "Point",
        "coordinates": [
          74.7517033,
          30.6729772
        ]
      },
      "id": "node/245770582"
    },
    {
      "type": "Feature",
      "properties": {
        "@id": "node/259846373",
        "capital": "6",
        "name": "Banes",
        "name:ru": "Ğ‘Ğ°Ğ½ĞµÑ",
        "name:uk": "Ğ‘Ğ°Ğ½ĞµÑ",
        "place": "city",
        "population": "35 316",
        "wikidata": "Q806424",
        "wikipedia": "es:Banes"
      },
      "geometry": {
        "type": "Point",
        "coordinates": [
          -75.7228786,
          20.9617436
        ]
      },
      "id": "node/259846373"
    },
    {
      "type": "Feature",
      "properties": {
        "@id": "node/265018692",
        "admin_level": "2",
        "capital": "yes",
        "capital_ISO3166-1": "yes",
        "is_in:continent": "Asia",
        "is_in:country": "Japan",
        "is_in:country_code": "JP",
        "is_in:island": "Honshu",
        "is_in:iso_3166_2": "JP-13",
        "name": "æ±äº¬éƒ½",
        "name:ar": "Ø·ÙˆÙƒÙŠÙˆ",
        "name:ast": "Tokio",
        "name:be": "Ğ¢Ğ¾ĞºÑ–Ğ°",
        "name:ca": "TÃ²quio",
        "name:ckb": "ØªÛ†Ú©ÛŒÛ†",
        "name:cs": "Tokio",
        "name:cy": "Tokyo",
        "name:da": "Tokyo",
        "name:de": "Tokio",
        "name:el": "Î¤ÏŒÎºÎ¹Î¿",
        "name:en": "Tokyo",
        "name:eo": "Tokio",
        "name:es": "Tokio",
        "name:et": "TÅkyÅ",
        "name:fa": "ØªÙˆÚ©ÛŒÙˆ",
        "name:fi": "Tokio",
        "name:fr": "Tokyo",
        "name:he": "×˜×•×§×™×•",
        "name:hr": "Tokio",
        "name:hu": "TokiÃ³",
        "name:ia": "Tokyo",
        "name:io": "Tokyo",
        "name:is": "TÃ³kÃ½Ã³",
        "name:it": "Tokyo",
        "name:ja": "æ±äº¬éƒ½",
        "name:ja-Hira": "ã¨ã†ãã‚‡ã†ã¨",
        "name:ja-Latn": "TÅkyÅ-to",
        "name:jbo": ".tokios.",
        "name:kn": "à²Ÿà³‹à²•à³à²¯à³Š",
        "name:ko": "ë„ì¿„ë„",
        "name:ku": "Tokyo",
        "name:lb": "Tokio",
        "name:lt": "Tokijas",
        "name:lv": "Tokija",
        "name:nan": "Tang-kiaâ¿",
        "name:nl": "Tokio",
        "name:oc": "TÃ²quio",
        "name:pap": "Tokyo",
        "name:pl": "Tokio",
        "name:pt": "TÃ³quio",
        "name:ru": "Ğ¢Ğ¾ĞºĞ¸Ğ¾",
        "name:sk": "Tokio",
        "name:sl": "Tokio",
        "name:sr": "Ğ¢Ğ¾ĞºĞ¸Ğ¾",
        "name:sv": "Tokyo",
        "name:szl": "Tokjo",
        "name:ta": "à®Ÿà¯‹à®•à¯à®•à®¿à®¯à¯‹",
        "name:tg": "Ğ¢Ğ¾ĞºĞ¸Ğ¾",
        "name:th": "à¹‚à¸•à¹€à¸à¸µà¸¢à¸§",
        "name:tr": "Tokyo",
        "name:uk": "Ğ¢Ğ¾ĞºÑ–Ğ¾",
        "name:vi": "Tokyo",
        "name:wuu": "ä¸œäº¬éƒ½",
        "name:yue": "æ±äº¬éƒ½",
        "name:zh": "ä¸œäº¬éƒ½/æ±äº¬éƒ½",
        "name:zh-Hans": "ä¸œäº¬éƒ½",
        "name:zh-Hant": "æ±äº¬éƒ½",
        "old_name:fr": "Tokio",
        "old_name:ja": "æ±äº°",
        "old_name:vi": "ÄÃ´ng Kinh",
        "old_name:zh": "ä¸œäº¬",
        "old_name:zh-Hans": "ä¸œäº¬",
        "old_name:zh-Hant": "æ±äº¬",
        "place": "city",
        "population": "13613660",
        "rank": "0",
        "source:name:oc": "Lo CongrÃ¨s",
        "website": "https://www.metro.tokyo.lg.jp/",
        "wikidata": "Q7473516",
        "wikipedia": "ja:æ±äº¬éƒ½",
        "wikipedia:en": "Tokyo",
        "wikipedia:ja": "æ±äº¬éƒ½"
      },
      "geometry": {
        "type": "Point",
        "coordinates": [
          139.7594549,
          35.6828387
        ]
      },
      "id": "node/265018692"
    },
    {
      "type": "Feature",
      "properties": {
        "@id": "node/282294082",
        "admin_level": "2",
        "capital": "yes",
        "capital_ISO3166-1": "yes",
        "ele": "76",
        "name": "Belmopan",
        "name:ace": "BÃ¨lmopan",
        "name:am": "á‰¤áˆáˆá“áŠ•",
        "name:ar": "Ø¨Ù„Ù…ÙˆØ¨Ø§Ù†",
        "name:be": "Ğ‘ĞµĞ»ÑŒĞ¼Ğ°Ğ¿Ğ°Ğ½",
        "name:be-tarask": "Ğ‘ÑĞ»ÑŒĞ¼Ğ°Ğ¿Ğ°Ğ½",
        "name:bg": "Ğ‘ĞµĞ»Ğ¼Ğ¾Ğ¿Ğ°Ğ½",
        "name:bo": "à½”à½ºà½¢à¼‹à½˜à½¼à¼‹à½•à½“à¼",
        "name:de": "Belmopan",
        "name:el": "ÎœÏ€ÎµÎ»Î¼Î¿Ï€Î¬Î½",
        "name:en": "Belmopan",
        "name:eo": "Belmopano",
        "name:es": "BelmopÃ¡n",
        "name:fa": "Ø¨Ù„Ù…ÙˆÙ¾Ø§Ù†",
        "name:fr": "Belmopan",
        "name:frp": "BÃ¨lmopan",
        "name:gl": "BelmopÃ¡n",
        "name:he": "×‘×œ××•×¤×Ÿ",
        "name:hi": "à¤¬à¥‡à¤²à¥à¤®à¥‹à¤ªà¤¾à¤¨",
        "name:ht": "BÃ¨lmopan",
        "name:hu": "Belmopan",
        "name:hy": "Ô²Õ¥Õ¬Õ´Õ¸ÕºÕ¡Õ¶",
        "name:is": "BelmÃ³pan",
        "name:ja": "ãƒ™ãƒ«ãƒ¢ãƒ‘ãƒ³",
        "name:ka": "áƒ‘áƒ”áƒšáƒ›áƒáƒáƒáƒœáƒ˜",
        "name:ko": "ë²¨ëª¨íŒ",
        "name:ku": "Belmopan",
        "name:la": "Belmopanum",
        "name:lt": "Belmopanas",
        "name:lv": "Belmopana",
        "name:mk": "Ğ‘ĞµĞ»Ğ¼Ğ¾Ğ¿Ğ°Ğ½",
        "name:mr": "à¤¬à¥‡à¤²à¥à¤®à¥‹à¤ªà¤¾à¤¨",
        "name:oc": "BelmopÃ¡n",
        "name:pl": "Belmopan",
        "name:ru": "Ğ‘ĞµĞ»ÑŒĞ¼Ğ¾Ğ¿Ğ°Ğ½",
        "name:sah": "Ğ‘ĞµĞ»Ğ¼Ğ¾Ğ¿Ğ°Ğ½",
        "name:sr": "Ğ‘ĞµĞ»Ğ¼Ğ¾Ğ¿Ğ°Ğ½",
        "name:sv": "Belmopan",
        "name:ta": "à®ªà¯†à®²à¯à®®à¯‹à®ªà¯à®ªà®¾à®©à¯",
        "name:th": "à¹€à¸šà¸¥à¹‚à¸¡à¹à¸à¸™",
        "name:tr": "BelmopÃ¡n",
        "name:uk": "Ğ‘ĞµĞ»ÑŒĞ¼Ğ¾Ğ¿Ğ°Ğ½",
        "name:zh": "è²çˆ¾è«æ½˜",
        "place": "city",
        "population": "22,387",
        "population:date": "2020",
        "wikidata": "Q3043",
        "wikipedia": "en:Belmopan"
      },
      "geometry": {
        "type": "Point",
        "coordinates": [
          -88.770018,
          17.250199
        ]
      },
      "id": "node/282294082"
    },
    {
      "type": "Feature",
      "properties": {
        "@id": "node/472114145",
        "admin_level": "2",
        "capital": "yes",
        "capital_ISO3166-1": "yes",
        "ele": "1500",
        "name": "Ciudad de Guatemala",
        "name:ace": "Banda Guatemala",
        "name:af": "Guatemala-stad",
        "name:ar": "Ù…Ø¯ÙŠÙ†Ø© ØºÙˆØ§ØªÙŠÙ…Ø§Ù„Ø§",
        "name:ay": "Watimala marka",
        "name:az": "Qvatemala",
        "name:be": "Ğ“Ğ²Ğ°Ñ‚ÑĞ¼Ğ°Ğ»Ğ°",
        "name:bg": "Ğ“Ğ²Ğ°Ñ‚ĞµĞ¼Ğ°Ğ»Ğ°",
        "name:bn": "à¦—à§à¦¯à¦¼à¦¾à¦¤à§‡à¦®à¦¾à¦²à¦¾ à¦¸à¦¿à¦Ÿà¦¿",
        "name:bo": "à½‚à½´à¼‹à½à½ºà¼‹à½à½²à¼‹à½˜à¼‹à½£à¼‹à½‚à¾²à½¼à½„à¼‹à½à¾±à½ºà½¢à¼",
        "name:br": "Ciudad de Guatemala",
        "name:bs": "Guatemala City",
        "name:ca": "Ciutat de Guatemala",
        "name:cs": "Ciudad de Guatemala",
        "name:cy": "Dinas Guatemala",
        "name:da": "Guatamala City",
        "name:de": "Guatemala-Stadt",
        "name:el": "Î ÏŒÎ»Î· Ï„Î·Ï‚ Î“Î¿Ï…Î±Ï„ÎµÎ¼Î¬Î»Î±Ï‚",
        "name:en": "Guatemala City",
        "name:eo": "Gvatemalurbo",
        "name:es": "Ciudad de Guatemala",
        "name:et": "Guatemala",
        "name:eu": "Guatemalako Hiria",
        "name:fa": "Ú¯ÙˆØ§ØªÙ…Ø§Ù„Ø§Ø³ÛŒØªÛŒ",
        "name:fi": "Guatemala",
        "name:fr": "Guatemala",
        "name:fy": "GÃ»atemala-StÃªd",
        "name:gd": "Baile Guatemala",
        "name:gl": "Cidade de Guatemala - Ciudad de Guatemala",
        "name:he": "×’×•××˜××œ×” ×¡×™×˜×™",
        "name:hi": "à¤—à¥à¤µà¤¾à¤Ÿà¥‡à¤®à¤¾à¤²à¤¾ à¤¨à¤—à¤°",
        "name:hif": "Guatemala City",
        "name:hr": "Guatemala",
        "name:ht": "Siwdad",
        "name:hu": "GuatemalavÃ¡ros",
        "name:id": "Kota Guatemala",
        "name:ie": "Guatemala CitÃ©",
        "name:io": "Guatemala-Urbo",
        "name:is": "Gvatemalaborg",
        "name:it": "CittÃ  del Guatemala",
        "name:ja": "ã‚°ã‚¢ãƒ†ãƒãƒ©ã‚·ãƒ†ã‚£",
        "name:ka": "áƒ’áƒ•áƒáƒ¢áƒ”áƒ›áƒáƒšáƒ",
        "name:ko": "ê³¼í…Œë§ë¼",
        "name:ku": "Guatemala",
        "name:lmo": "CitÃ  del Guatemala",
        "name:lt": "Gvatemala",
        "name:lv": "Gvatemala",
        "name:mk": "Ğ“Ğ²Ğ°Ñ‚ĞµĞ¼Ğ°Ğ»Ğ°",
        "name:mr": "à¤—à¥à¤µà¤¾à¤¤à¥‡à¤®à¤¾à¤²à¤¾ à¤¸à¤¿à¤Ÿà¥€",
        "name:nah": "Ä€ltepÄ“tl CuauhtÄ“mallÄn",
        "name:nan": "Guatemala ChhÄ«",
        "name:nl": "Guatemala-Stad",
        "name:nn": "Guatemala by",
        "name:no": "Guatemala by",
        "name:nov": "Guatemala Urbe",
        "name:oc": "Ciutat de Guatemala",
        "name:os": "Ğ“Ğ²Ğ°Ñ‚ĞµĞ¼Ğ°Ğ»Ã¦",
        "name:pap": "Siudad di Guatemala",
        "name:pl": "Gwatemala",
        "name:pms": "SitÃ  Ã«d Guatemala",
        "name:pt": "Cidade da Guatemala",
        "name:qu": "Watimala llaqta",
        "name:ro": "Ciudad de Guatemala",
        "name:roa-rup": "Guatemala casaba",
        "name:ru": "Ğ“Ğ²Ğ°Ñ‚ĞµĞ¼Ğ°Ğ»Ğ°",
        "name:sah": "Ğ“ÑƒĞ°Ñ‚ĞµĞ¼Ğ°Ğ»Ğ°",
        "name:sco": "Guatemala Ceety",
        "name:se": "Ciudad de Guatemala",
        "name:sk": "Guatemala",
        "name:sl": "Ciudad Guatemala",
        "name:sr": "Ğ“Ñ€Ğ°Ğ´ Ğ“Ğ²Ğ°Ñ‚ĞµĞ¼Ğ°Ğ»Ğ°",
        "name:sv": "Guatemala City",
        "name:sw": "Guatemala City",
        "name:ta": "à®•à¯à®µà®¾à®¤à¯à®¤à®®à®¾à®²à®¾ à®¨à®•à®°à®®à¯",
        "name:th": "à¸à¸±à¸§à¹€à¸•à¸¡à¸²à¸¥à¸²à¸‹à¸´à¸•à¸µ",
        "name:tl": "Lungsod ng Guwatemala",
        "name:tr": "Guatemala",
        "name:udm": "Ğ“Ğ²Ğ°Ñ‚ĞµĞ¼Ğ°Ğ»Ğ°",
        "name:ug": "Ú¯Û‹Ø§ØªÛÙ…Ø§Ù„Ø§ Ø´Û•Ú¾Ù‰Ø±Ù‰",
        "name:uk": "Ğ“Ğ²Ğ°Ñ‚ĞµĞ¼Ğ°Ğ»Ğ°",
        "name:ur": "Ú¯ÙˆØ¦Ù¹Û’ Ù…Ø§Ù„Ø§ Ø´ÛØ±",
        "name:vi": "ThÃ nh phá»‘ Guatemala",
        "name:vo": "Ciudad de Guatemala",
        "name:war": "Syudad han Guatemala",
        "name:yo": "ÃŒlÃº Guatáº¹mÃ¡lÃ ",
        "name:zh": "å±åœ°é¦¬æ‹‰åŸ",
        "official_name": "Nueva Guatemala de la AsunciÃ³n",
        "place": "city",
        "population": "2,450,212",
        "ref:LOCODE": "GTGUA",
        "website": "http://www.muniguate.com",
        "wikidata": "Q1555",
        "wikipedia": "es:Ciudad de Guatemala"
      },
      "geometry": {
        "type": "Point",
        "coordinates": [
          -90.5185188,
          14.6222328
        ]
      },
      "id": "node/472114145"
    },
    {
      "type": "Feature",
      "properties": {
        "@id": "node/472259501",
        "is_in": "Mariano Escobedo, Veracruz, MÃ©xico",
        "name": "Mariano Escobedo",
        "place": "city",
        "population": "3,188",
        "source": "local knowledge;gps",
        "website": "https://www.marianoescobedo.gob.mx/",
        "wikidata": "Q6762347",
        "wikipedia": "es:Municipio de Mariano Escobedo"
      },
      "geometry": {
        "type": "Point",
        "coordinates": [
          -97.13,
          18.914167
        ]
      },
      "id": "node/472259501"
    },
    {
      "type": "Feature",
      "properties": {
        "@id": "node/734098547",
        "alt_name:eo": "Chongqing",
        "capital": "4",
        "int_name": "Chongqing",
        "name": "é‡åº†å¸‚",
        "name:be": "Ğ§ÑƒĞ½Ñ†Ñ‹Ğ½",
        "name:ca": "Txungking",
        "name:cs": "ÄŒchung-Äching",
        "name:de": "Chongqing",
        "name:en": "Chongqing",
        "name:eo": "ÄˆongÄ‰ingo",
        "name:et": "Chongqing",
        "name:fi": "Chongqing",
        "name:fr": "Chongqing",
        "name:hi": "à¤šà¥Šà¤‚à¤—à¥à¤•à¤¿à¤‚à¤—",
        "name:ja": "é‡æ…¶å¸‚",
        "name:kn": "à²šà³Šà²‚à²—à³à²•à²¿à²‚à²—à³",
        "name:nl": "Chongqing",
        "name:oc": "Chongqing",
        "name:pl": "Chongqing",
        "name:ru": "Ğ§ÑƒĞ½Ñ†Ğ¸Ğ½",
        "name:sr": "Ğ§ÑƒĞ½Ğ³ĞºĞ¸Ğ½Ğ³",
        "name:uk": "Ğ§ÑƒĞ½Ñ†Ñ–Ğ½",
        "name:vi": "TrÃ¹ng KhÃ¡nh",
        "name:zh": "é‡åº†å¸‚",
        "name:zh_pinyin": "ChÃ³ngqÃ¬ng shÃ¬",
        "old_name:nl": "Tsjoengking",
        "place": "city",
        "population": "18400000",
        "ref": "æ¸",
        "ref:en": "CQ",
        "ref:vi": "TrÃ¹ng",
        "source:name:oc": "Lo CongrÃ¨s",
        "wikidata": "Q11725",
        "wikipedia": "en:Chongqing"
      },
      "geometry": {
        "type": "Point",
        "coordinates": [
          106.5478767,
          29.5647398
        ]
      },
      "id": "node/734098547"
    },
    {
      "type": "Feature",
      "properties": {
        "@id": "node/752195628",
        "KSJ2:CN2": "æ½Ÿä¸Šå¸‚",
        "KSJ2:PRN": "ç§‹ç”°çœŒ",
        "int_name": "Katagami",
        "is_in": "ç§‹ç”°çœŒ",
        "is_in:country": "Japan",
        "is_in:country_code": "JP",
        "is_in:region": "ç§‹ç”°çœŒ",
        "layer": "1",
        "name": "æ½Ÿä¸Šå¸‚",
        "name:ar": "ÙƒØ§ØªØ§ØºØ§Ù…ÙŠØŒ Ø£ÙƒÙŠØªØ§",
        "name:de": "Katagami",
        "name:en": "Katagami",
        "name:es": "Katagami",
        "name:fr": "Katagami",
        "name:ja": "æ½Ÿä¸Šå¸‚",
        "name:ja_kana": "ã‹ãŸãŒã¿ã—",
        "name:ja_rm": "Katagami-shi",
        "name:ko": "ê°€íƒ€ê°€ë¯¸ì‹œ",
        "name:pl": "Katagami",
        "name:ru": "ĞšĞ°Ñ‚Ğ°Ğ³Ğ°Ğ¼Ğ¸",
        "name:uk": "ĞšĞ°Ñ‚Ğ°Ò‘Ğ°Ğ¼Ñ–",
        "note": "National-Land Numerical Information (Administrative area) 2008, MLIT Japan",
        "note:ja": "å›½åœŸæ•°å€¤æƒ…å ±ï¼ˆè¡Œæ”¿åŒºåŸŸãƒ‡ãƒ¼ã‚¿ï¼‰å¹³æˆ20å¹´ã€€å›½åœŸäº¤é€šçœ",
        "place": "city",
        "population": "32,422",
        "population:date": "2017",
        "source": "KSJ2",
        "source:population": "https://www.wikidata.org/wiki/Q646780",
        "source_ref": "http://nlftp.mlit.go.jp/ksj/jpgis/datalist/KsjTmplt-N03.html",
        "wikidata": "Q646780",
        "wikipedia": "ja:æ½Ÿä¸Šå¸‚"
      },
      "geometry": {
        "type": "Point",
        "coordinates": [
          140.0132252,
          39.8572974
        ]
      },
      "id": "node/752195628"
    },
    {
      "type": "Feature",
      "properties": {
        "@id": "node/1686293227",
        "ISO3166-2": "RU-MOW",
        "addr:region": "ĞœĞ¾ÑĞºĞ²Ğ°",
        "admin_level": "2",
        "alt_name:vi": "Máº¡c TÆ° Khoa",
        "capital": "yes",
        "ele": "156",
        "int_name": "Moscow",
        "is_capital": "country",
        "name": "ĞœĞ¾ÑĞºĞ²Ğ°",
        "name:ab": "ĞœĞ¾ÑĞºĞ²Ğ°",
        "name:ace": "Moskow",
        "name:af": "Moskou",
        "name:ak": "Moscow",
        "name:am": "áˆáˆµáŠ®",
        "name:an": "MoscÃº",
        "name:ang": "MoscoÆ¿",
        "name:ar": "Ù…ÙˆØ³ÙƒÙˆ",
        "name:arc": "Ü¡Ü˜Ü£Ü©Ü’Ü",
        "name:arz": "Ù…ÙˆØ³ÙƒÙˆ",
        "name:ast": "MoscÃº",
        "name:av": "ĞœĞ¾ÑĞºĞ²Ğ°",
        "name:ay": "Mosku",
        "name:az": "Moskva",
        "name:ba": "ĞœÓ™ÑĞºÓ™Ò¯",
        "name:bat-smg": "Maskva",
        "name:bcl": "Mosku",
        "name:be": "ĞœĞ°ÑĞºĞ²Ğ°",
        "name:be-tarask": "ĞœĞ°ÑĞºĞ²Ğ°",
        "name:bg": "ĞœĞ¾ÑĞºĞ²Ğ°",
        "name:bi": "Moskow",
        "name:bn": "à¦®à¦¸à§à¦•à§‹",
        "name:bo": "à½˜à½¼à¼‹à½¦à½²à¼‹à½à½¼à¼",
        "name:br": "Moskov",
        "name:bs": "Moskva",
        "name:bxr": "ĞœÑƒÑˆÑ…Ğ°Ğ²Ğ°Ğ°",
        "name:ca": "Moscou",
        "name:ce": "ĞœĞ¾ÑĞºĞ¾Ñ…",
        "name:ch": "Moscow",
        "name:chm": "ĞœĞ¾ÑĞºĞ¾",
        "name:chu": "ĞœĞ¾ÑĞºĞ²Ğ°Ì€",
        "name:ckb": "Ù…Û†Ø³Ú©Û†",
        "name:co": "MoscÃ¹",
        "name:crh": "Moskva",
        "name:cs": "Moskva",
        "name:csb": "MÃ²skwa",
        "name:cu": "ĞœĞ¾ÑĞºÑŠĞ²Ğ°",
        "name:cv": "ĞœÑƒÑĞºĞ°Ğ²",
        "name:cy": "Moscfa",
        "name:da": "Moskva",
        "name:de": "Moskau",
        "name:diq": "Moskowa",
        "name:dsb": "Moskwa",
        "name:dv": "Ş‰Ş®ŞŞ°Ş†Ş¯",
        "name:dz": "à½˜à½¼à½¦à½²à¼‹à½€à½¼",
        "name:el": "ÎœÏŒÏƒÏ‡Î±",
        "name:eml": "MÃ¥ssca",
        "name:en": "Moscow",
        "name:eo": "Moskvo",
        "name:es": "MoscÃº",
        "name:et": "Moskva",
        "name:eu": "Mosku",
        "name:ext": "MoscÃº",
        "name:fa": "Ù…Ø³Ú©Ùˆ",
        "name:fi": "Moskova",
        "name:fiu-vro": "Moskva",
        "name:fo": "Moskva",
        "name:fr": "Moscou",
        "name:frp": "Moscou",
        "name:frr": "Moskva",
        "name:fy": "Moskou",
        "name:ga": "MoscÃ³",
        "name:gag": "Moskva",
        "name:gan": "è«æ–¯ç§‘",
        "name:gd": "Moscobha",
        "name:gl": "Moscova - ĞœĞ¾ÑĞºĞ²Ğ°",
        "name:gn": "Mosku",
        "name:gv": "Moscow",
        "name:haw": "Mokekao",
        "name:he": "××•×¡×§×•×•×”",
        "name:hi": "à¤®à¤¾à¤¸à¥à¤•à¥‹",
        "name:hif": "Moscow",
        "name:hr": "Moskva",
        "name:hsb": "Moskwa",
        "name:ht": "Moskou",
        "name:hu": "Moszkva",
        "name:hy": "Õ„Õ¸Õ½Õ¯Õ¾Õ¡",
        "name:ia": "Moscova",
        "name:id": "Moskwa",
        "name:ie": "Moskwa",
        "name:ilo": "Moscow",
        "name:io": "Moskva",
        "name:is": "Moskva",
        "name:it": "Mosca",
        "name:iu": "á’¨á”…á‘¯",
        "name:ja": "ãƒ¢ã‚¹ã‚¯ãƒ¯",
        "name:jbo": "moskovas",
        "name:jv": "Moskwa",
        "name:ka": "áƒ›áƒáƒ¡áƒ™áƒáƒ•áƒ˜",
        "name:kaa": "Moskva",
        "name:kab": "Mosku",
        "name:kbd": "ĞœÑĞ·ĞºÑƒÑƒ",
        "name:kg": "Moskva",
        "name:kk": "ĞœÓ™ÑĞºĞµÑƒ",
        "name:kl": "Moskva",
        "name:kn": "à²®à²¾à²¸à³à²•à³‹",
        "name:ko": "ëª¨ìŠ¤í¬ë°”",
        "name:koi": "ĞœÓ§ÑĞºĞ²Ğ°",
        "name:krc": "ĞœĞ¾ÑĞºĞ²Ğ°",
        "name:ku": "Moskow",
        "name:kv": "ĞœÓ§ÑĞºÑƒĞ°",
        "name:kw": "Moskva",
        "name:ky": "ĞœĞ¾ÑĞºĞ²Ğ°",
        "name:la": "Moscua",
        "name:lad": "Mosku",
        "name:lbe": "ĞœĞ¾ÑĞºĞ°Ğ²",
        "name:lez": "ĞœĞ¾ÑĞºĞ²Ğ°",
        "name:lg": "Moosko",
        "name:li": "Moskou",
        "name:lij": "Mosca",
        "name:lmo": "Musca",
        "name:ln": "MoskÃº",
        "name:lt": "Maskva",
        "name:lv": "Maskava",
        "name:lzh": "è«æ–¯ç§‘",
        "name:mdf": "ĞœĞ¾ÑĞºÑƒ",
        "name:mg": "Moskva",
        "name:mhr": "ĞœĞ¾ÑĞºĞ¾",
        "name:mi": "Mohikau",
        "name:mk": "ĞœĞ¾ÑĞºĞ²Ğ°",
        "name:ml": "à´®àµ‹à´¸àµà´•àµ‹",
        "name:mn": "ĞœĞ¾ÑĞºĞ²Ğ°",
        "name:mr": "à¤®à¥‰à¤¸à¥à¤•à¥‹",
        "name:mrj": "ĞœĞ¾ÑĞºĞ²Ğ°",
        "name:ms": "Moscow",
        "name:mt": "Moska",
        "name:mwl": "Moscobo",
        "name:my": "á€™á€±á€¬á€ºá€…á€€á€­á€¯á€™á€¼á€­á€¯á€·",
        "name:myv": "ĞœĞ¾ÑĞºĞ¾Ğ² Ğ¾Ñˆ",
        "name:mzn": "Ù…ÙˆØ³Ú©Ùˆ",
        "name:na": "Moscow",
        "name:nah": "Moscohuia",
        "name:nan": "BoÌk-su-kho",
        "name:nap": "Mosca",
        "name:nb": "Moskva",
        "name:nds": "Moskau",
        "name:nds-nl": "Moskou",
        "name:nl": "Moskou",
        "name:nn": "Moskva",
        "name:no": "Moskva",
        "name:nov": "Moskva",
        "name:nrm": "Moscou",
        "name:oc": "MoscÃ²u",
        "name:os": "ĞœÃ¦ÑĞºÑƒÑ‹",
        "name:pap": "Moskou",
        "name:pcd": "Moscou",
        "name:pdc": "Moscow",
        "name:pl": "Moskwa",
        "name:pms": "Mosca",
        "name:pnb": "Ù…Ø§Ø³Ú©Ùˆ",
        "name:pnt": "ÎœÏŒÏƒÏ‡Î±",
        "name:ps": "Ù…Ø³Ú©Ùˆ",
        "name:pt": "Moscou",
        "name:qu": "Moskwa",
        "name:rmy": "Moscova",
        "name:ro": "Moscova",
        "name:roa-rup": "Moscova",
        "name:roa-tara": "Mosche",
        "name:ru": "ĞœĞ¾ÑĞºĞ²Ğ°",
        "name:rue": "ĞœĞ¾ÑĞºĞ²Ğ°",
        "name:sah": "ĞœĞ¾ÑĞºĞ²Ğ°",
        "name:sc": "Mosca",
        "name:scn": "Mosca",
        "name:sco": "Moscow",
        "name:se": "Moskva",
        "name:sg": "Moscow",
        "name:sh": "Moskva",
        "name:simple": "Moscow",
        "name:sk": "Moskva",
        "name:sl": "Moskva",
        "name:sm": "Moscow",
        "name:so": "Moskow",
        "name:sq": "Moska",
        "name:sr": "ĞœĞ¾ÑĞºĞ²Ğ°",
        "name:ss": "Moscow",
        "name:st": "Moscow",
        "name:su": "Moskwa",
        "name:sv": "Moskva",
        "name:sw": "Moscow",
        "name:szl": "Moskwa",
        "name:ta": "à®®à®¾à®¸à¯à®•à¯‹",
        "name:te": "à°®à°¾à°¸à±à°•à±‹",
        "name:tet": "Moskovu",
        "name:tg": "ĞœĞ°ÑĞºĞ°Ğ²",
        "name:th": "à¸¡à¸­à¸ªà¹‚à¸",
        "name:tk": "Moskwa",
        "name:tl": "Moscow",
        "name:tpi": "Mosko",
        "name:tr": "Moskova",
        "name:tt": "ĞœÓ™ÑĞºÓ™Ò¯",
        "name:ty": "Moscou",
        "name:tzl": "Moscal",
        "name:udm": "ĞœÑƒÑĞºĞ¾",
        "name:ug": "Moskwa",
        "name:uk": "ĞœĞ¾ÑĞºĞ²Ğ°",
        "name:ur": "Ù…Ø§Ø³Ú©Ùˆ",
        "name:uz": "Moskva",
        "name:vec": "Mosca",
        "name:vep": "Moskv",
        "name:vi": "MÃ¡t-xcÆ¡-va",
        "name:vls": "Moskou",
        "name:vo": "Moskva",
        "name:wa": "Moscou",
        "name:war": "Moscow",
        "name:wo": "Mosku",
        "name:xal": "ĞœĞ¾ÑĞºĞ²Ğ° Ğ±Ğ°Ğ»Ò»ÑĞ½",
        "name:xmf": "áƒ›áƒáƒ¡áƒ™áƒáƒ•áƒ˜",
        "name:yi": "×××¡×§×•×•×¢",
        "name:yo": "Má»sko",
        "name:yue": "è«æ–¯ç§‘",
        "name:za": "Moscow",
        "name:zea": "Moskou",
        "name:zh": "è«æ–¯ç§‘",
        "name:zu": "IMoskwa",
        "note": "ÑÑ‚Ğ° Ñ‚Ğ¾Ñ‡ĞºĞ° Ğ´Ğ¾Ğ»Ğ¶Ğ½Ğ° Ğ±Ñ‹Ñ‚ÑŒ Ğ·Ğ´ĞµÑÑŒ, Ğ² Ğ¸ÑÑ‚Ğ¾Ñ€Ğ¸Ñ‡ĞµÑĞºĞ¾Ğ¼ Ñ†ĞµĞ½Ñ‚Ñ€Ğµ ĞœĞ¾ÑĞºĞ²Ñ‹",
        "official_status": "ru:Ğ³Ğ¾Ñ€Ğ¾Ğ´",
        "okato:user": "none",
        "place": "city",
        "population": "12630289",
        "population:date": "2019-09-04",
        "rank": "0",
        "wikidata": "Q649",
        "wikipedia": "ru:ĞœĞ¾ÑĞºĞ²Ğ°"
      },
      "geometry": {
        "type": "Point",
        "coordinates": [
          37.6174943,
          55.7504461
        ]
      },
      "id": "node/1686293227"
    },
    {
      "type": "Feature",
      "properties": {
        "@id": "node/1813877089",
        "addr:country": "TJ",
        "addr:province": "Ğ’Ğ¸Ğ»Ğ¾ÑÑ‚Ğ¸ Ğ¥Ğ°Ñ‚Ğ»Ğ¾Ğ½",
        "alt_name": "Kurganteppa",
        "ele": "430",
        "int_name": "Bokhtar",
        "is_in:continent": "Asia",
        "is_in:country": "TJ",
        "name": "Ğ‘Ğ¾Ñ…Ñ‚Ğ°Ñ€",
        "name:en": "Bokhtar",
        "name:et": "Bohtar",
        "name:fa": "Ø¨Ø§Ø®ØªØ±â€",
        "name:ru": "Ğ‘Ğ¾Ñ…Ñ‚Ğ°Ñ€",
        "name:tr": "Kurganteppa",
        "name:uz": "Boxtar",
        "old_name": "ĞšÑƒÑ€Ğ³Ğ°Ğ½-Ğ¢ÑĞ±Ğµ",
        "old_name:de": "Qurghonteppa",
        "old_name:en": "Kurgan Tyube",
        "old_name:en_1": "Qurghonteppa",
        "old_name:fa": "Ù‚Ø±ØºØ§Ù†â€ŒØªÙ¾Ù‡",
        "old_name:fr": "Qurghonteppa",
        "old_name:ja": "ã‚¯ãƒ«ã‚¬ãƒ³ãƒ†ãƒƒãƒ‘",
        "old_name:ru": "ĞšÑƒÑ€Ğ³Ğ°Ğ½-Ğ¢ÑĞ±Ğµ",
        "old_name:tg": "ÒšÑƒÑ€Ò“Ğ¾Ğ½Ñ‚ĞµĞ¿Ğ¿Ğ°",
        "old_name_1": "ÒšÑƒÑ€Ò“Ğ¾Ğ½Ñ‚ĞµĞ¿Ğ¿Ğ°",
        "place": "city",
        "population": "110 800",
        "postal_code": "735140",
        "website": "http://qurghonteppa.tj/",
        "wikidata": "Q648567",
        "wikipedia": "tg:Ğ‘Ğ¾Ñ…Ñ‚Ğ°Ñ€ (Ğ¼Ğ°Ñ€ĞºĞ°Ğ·Ğ¸ Ğ¼Ğ°ÑŠĞ¼ÑƒÑ€Ó£)"
      },
      "geometry": {
        "type": "Point",
        "coordinates": [
          68.7820957,
          37.8357217
        ]
      },
      "id": "node/1813877089"
    },
    {
      "type": "Feature",
      "properties": {
        "@id": "node/1824462523",
        "name": "Chaguanas",
        "name:lt": "ÄŒaguanasas",
        "name:uk": "Ğ§Ğ°Ğ³ÑƒĞ°Ğ½Ğ°Ñ",
        "place": "city",
        "population": "83,489",
        "wikidata": "Q1444575",
        "wikipedia": "en:Chaguanas"
      },
      "geometry": {
        "type": "Point",
        "coordinates": [
          -61.4076757,
          10.5147394
        ]
      },
      "id": "node/1824462523"
    },
    {
      "type": "Feature",
      "properties": {
        "@id": "node/1882099475",
        "alt_name:ar": "Ø¨ÙŠØ²Ù†Ø·Ø©",
        "alt_name:mk": "Ğ¦Ğ°Ñ€Ğ¸Ğ³Ñ€Ğ°Ğ´",
        "capital": "4",
        "int_name": "Istanbul",
        "name": "Ä°stanbul",
        "name:ar": "Ø¥Ø³Ø·Ù†Ø¨ÙˆÙ„",
        "name:bg": "Ğ˜ÑÑ‚Ğ°Ğ½Ğ±ÑƒĞ»",
        "name:ca": "Istanbul",
        "name:cy": "Istanbul",
        "name:de": "Istanbul",
        "name:el": "ÎšÏ‰Î½ÏƒÏ„Î±Î½Ï„Î¹Î½Î¿ÏÏ€Î¿Î»Î·",
        "name:en": "Istanbul",
        "name:eo": "Istanbulo",
        "name:es": "Estambul",
        "name:fi": "Istanbul",
        "name:fr": "Istanbul",
        "name:fy": "IstanbÃ»l",
        "name:ga": "IostanbÃºl",
        "name:hi": "à¤‡à¤¸à¥à¤¤à¤¾à¤‚à¤¬à¥à¤²",
        "name:hu": "Isztambul",
        "name:ia": "Istanbul",
        "name:io": "Istanbul",
        "name:is": "MikligarÃ°ur",
        "name:it": "Istanbul",
        "name:ja": "ã‚¤ã‚¹ã‚¿ãƒ³ãƒ–ãƒ«",
        "name:ka": "áƒ¡áƒ¢áƒáƒ›áƒ‘áƒ£áƒšáƒ˜",
        "name:kn": "à²‡à²¸à³à²¤à²¾à²‚à²¬à³à²²à³",
        "name:ko": "ì´ìŠ¤íƒ„ë¶ˆ",
        "name:ku": "Stembol",
        "name:la": "Constantinopolis",
        "name:lt": "Stambulas",
        "name:mk": "Ğ˜ÑÑ‚Ğ°Ğ½Ğ±ÑƒĞ»",
        "name:nl": "Istanboel",
        "name:oc": "Istambol",
        "name:pl": "StambuÅ‚",
        "name:pt": "Istambul",
        "name:ru": "Ğ¡Ñ‚Ğ°Ğ¼Ğ±ÑƒĞ»",
        "name:sk": "Istanbul",
        "name:sv": "Istanbul",
        "name:tr": "Ä°stanbul",
        "name:uk": "Ğ¡Ñ‚Ğ°Ğ¼Ğ±ÑƒĞ»",
        "name:zh": "ä¼Šæ–¯å¦å¸ƒå°”",
        "name:zh-Hant": "ä¼Šæ–¯å¦å ¡",
        "old_name": "Konstantiniyye",
        "old_name:ar": "Ø§Ù„Ù‚Ø³Ø·Ù†Ø·ÙŠÙ†ÙŠØ©",
        "old_name:bg": "Ğ¦Ğ°Ñ€Ğ¸Ğ³Ñ€Ğ°Ğ´",
        "old_name:ca": "Constantinoble",
        "old_name:cs": "Konstantinopol",
        "old_name:de": "Konstantinopel",
        "old_name:el": "ÎšÏ‰Î½ÏƒÏ„Î±Î½Ï„Î¹Î½Î¿ÏÏ€Î¿Î»Î·",
        "old_name:en": "Constantinople",
        "old_name:eo": "Stambulo;Konstantinopolo;Bizanco",
        "old_name:la": "Byzantium",
        "old_name:pl": "Biznacjum;Konstantynopol",
        "old_name:ru": "ĞšĞ¾Ğ½ÑÑ‚Ğ°Ğ½Ñ‚Ğ¸Ğ½Ğ¾Ğ¿Ğ¾Ğ»ÑŒ;Ğ¦Ğ°Ñ€ÑŒĞ³Ñ€Ğ°Ğ´",
        "old_name:sk": "KonÅ¡tantÃ­nopol;Carihrad",
        "place": "city",
        "population": "14804116",
        "source:name:oc": "Lo CongrÃ¨s",
        "website": "http://istanbul.gov.tr",
        "wikidata": "Q406",
        "wikipedia": "tr:Ä°stanbul"
      },
      "geometry": {
        "type": "Point",
        "coordinates": [
          28.9651646,
          41.0096334
        ]
      },
      "id": "node/1882099475"
    },
    {
      "type": "Feature",
      "properties": {
        "@id": "node/1886594378",
        "capital": "4",
        "name": "Ù„Ø§ÛÙˆØ±",
        "name:ar": "Ù„Ø§Ù‡ÙˆØ±",
        "name:cs": "LÃ¡haur",
        "name:de": "Lahore",
        "name:en": "Lahore",
        "name:eo": "Lahoro",
        "name:es": "Lahore",
        "name:et": "Lahore",
        "name:fr": "Lahore",
        "name:hi": "à¤²à¤¾à¤¹à¥Œà¤°",
        "name:ja": "ãƒ©ãƒ›ãƒ¼ãƒ«",
        "name:kn": "à²²à²¾à²¹à³‹à²°à³",
        "name:ml": "à´²à´¾à´¹àµ‹àµ¼",
        "name:oc": "Lahaur",
        "name:pl": "Lahaur",
        "name:pnb": "Ù„ÛÙˆØ±",
        "name:ru": "Ğ›Ğ°Ñ…Ğ¾Ñ€",
        "name:ta": "à®²à®¾à®•à¯‚à®°à¯",
        "name:uk": "Ğ›Ğ°Ñ…Ğ¾Ñ€",
        "name:ur": "Ù„Ø§ÛÙˆØ±",
        "name:zh": "æ‹‰åˆå°”",
        "place": "city",
        "population": "11126285",
        "source": "http://en.wikipedia.org/wiki/Punjab_%28Pakistan%29",
        "source:name:oc": "Lo CongrÃ¨s",
        "wikidata": "Q11739",
        "wikipedia": "en:Lahore"
      },
      "geometry": {
        "type": "Point",
        "coordinates": [
          74.3141829,
          31.5656822
        ]
      },
      "id": "node/1886594378"
    },
    {
      "type": "Feature",
      "properties": {
        "@id": "node/2460862103",
        "alt_name": "Sikandarabad",
        "and_a_nosr_p": "10006197",
        "int_name": "Sikandarabad",
        "name": "Secunderabad",
        "name:ar": "Ø³ÙŠÙƒÙˆÙ†Ø¯Ø±Ø£Ø¨Ø§Ø¯",
        "name:hi": "à¤¸à¤¿à¤•à¤‚à¤¦à¤°à¤¾à¤¬à¤¾à¤¦",
        "name:pa": "à¨¸à¨¿à¨•à©°à¨¦à¨°à¨¾à¨¬à¨¾à¨¦",
        "name:ta": "à®šà®¿à®•à¯à®•à®¨à¯à®¤à®°à®¾à®ªà®¾à®¤à¯",
        "name:te": "à°¸à°¿à°•à°¿à°‚à°¦à±à°°à°¾à°¬à°¾à°¦à±",
        "place": "city",
        "population": "213,698",
        "postal_code": "500003",
        "source": "AND;local knowledge;https://www.bsrhospitals.com/",
        "wikidata": "Q1003502",
        "wikipedia": "en:Secunderabad"
      },
      "geometry": {
        "type": "Point",
        "coordinates": [
          78.5006827,
          17.4337246
        ]
      },
      "id": "node/2460862103"
    },
    {
      "type": "Feature",
      "properties": {
        "@id": "node/2702400314",
        "ISO3166-2": "IN-DL",
        "is_in:continent": "Asia",
        "is_in:country": "India",
        "is_in:country_code": "IN",
        "is_in:state": "Delhi",
        "name": "Delhi",
        "name:ar": "Ø¯Ù„Ù‡ÙŠ",
        "name:bn": "à¦¦à¦¿à¦²à§à¦²à¦¿",
        "name:ckb": "Ø¯ÛÙ„Ù‡ÛŒ",
        "name:cs": "DillÃ­",
        "name:de": "Delhi",
        "name:el": "Î”ÎµÎ»Ï‡Î¯",
        "name:en": "Delhi",
        "name:eo": "Delhio",
        "name:es": "Delhi",
        "name:fa": "Ø¯Ù‡Ù„ÛŒ",
        "name:fr": "Delhi",
        "name:he": "×“×œ×”×™",
        "name:hi": "à¤¦à¤¿à¤²à¥à¤²à¥€",
        "name:ja": "ãƒ‡ãƒªãƒ¼",
        "name:kn": "à²¦à³†à²¹à²²à²¿",
        "name:ko": "ë¸ë¦¬",
        "name:ku": "DelhÃ®",
        "name:lv": "Deli",
        "name:ml": "à´¡àµ†àµ½à´¹à´¿",
        "name:ms": "Delhi",
        "name:my": "á€’á€±á€œá€®á€™á€¼á€­á€¯á€·",
        "name:ne": "à¤¦à¤¿à¤²à¥à¤²à¥€",
        "name:oc": "Delhi",
        "name:pa": "à¨¦à¨¿à©±à¨²à©€",
        "name:pt": "Deli",
        "name:ru": "Ğ”ĞµĞ»Ğ¸",
        "name:ta": "à®¤à®¿à®²à¯à®²à®¿",
        "name:th": "à¹€à¸”à¸¥à¸µ",
        "name:uk": "Ğ”ĞµĞ»Ñ–",
        "name:ur": "Ø¯ÛÙ„ÛŒ",
        "name:zh": "å¾·é‡Œ",
        "place": "city",
        "population": "16787941",
        "population:date": "2011",
        "source:name:oc": "Lo CongrÃ¨s",
        "wikidata": "Q1353",
        "wikipedia": "en:Delhi"
      },
      "geometry": {
        "type": "Point",
        "coordinates": [
          77.2219388,
          28.6517178
        ]
      },
      "id": "node/2702400314"
    },
    {
      "type": "Feature",
      "properties": {
        "@id": "node/3051635970",
        "alt_name": "çŸ³å®¶åº„;Shih-chia-chuang Ti-ch'u;Shih-chia-chuang Chuan-ch'u;Shijiazhuang Shi;Shijiazhuang Diqu;Shih-chia-chuang Shih",
        "capital": "4",
        "gns:dsg": "ADM2: second-order administrative division",
        "name": "çŸ³å®¶åº„å¸‚",
        "name:cs": "Å â€™-Å¥ia-Äuang",
        "name:en": "Shijiazhuang",
        "name:et": "Shijiazhuang",
        "name:fi": "Shijiazhuang",
        "name:fr": "Shijiazhuang",
        "name:ja": "çŸ³å®¶è˜å¸‚",
        "name:nl": "Shijiazhuang",
        "name:oc": "Shijiazhuang",
        "name:ru": "Ğ¨Ğ¸Ñ†Ğ·ÑÑ‡Ğ¶ÑƒĞ°Ğ½",
        "name:uk": "Ğ¨Ğ¸Ñ†Ğ·ÑÑ‡Ğ¶ÑƒĞ°Ğ½",
        "name:vi": "Tháº¡ch Gia Trang",
        "name:zh": "çŸ³å®¶åº„å¸‚",
        "place": "city",
        "population": "10163788",
        "source:name": "GNS",
        "source:name:oc": "Lo CongrÃ¨s",
        "wikidata": "Q58401",
        "wikipedia": "zh:çŸ³å®¶åº„å¸‚"
      },
      "geometry": {
        "type": "Point",
        "coordinates": [
          114.5088385,
          38.0429742
        ]
      },
      "id": "node/3051635970"
    },
    {
      "type": "Feature",
      "properties": {
        "@id": "node/3181550515",
        "capital": "4",
        "name": "Ú©Ø±Ø§Ú†ÛŒ",
        "name:ar": "ÙƒØ±Ø§ØªØ´ÙŠ",
        "name:cs": "KarÃ¡ÄÃ­",
        "name:de": "Karatschi",
        "name:en": "Karachi",
        "name:eo": "KaraÄ‰io",
        "name:es": "Karachi",
        "name:et": "KarÄchi",
        "name:fr": "Karachi",
        "name:gan": "å¡æ‹‰å¥‡",
        "name:hi": "à¤•à¤°à¤¾à¤šà¥€",
        "name:kn": "à²•à²°à²¾à²šà²¿",
        "name:ku": "KeraÃ§Ã®",
        "name:ml": "à´•à´±à´¾à´šàµà´šà´¿",
        "name:oc": "Karachi",
        "name:ru": "ĞšĞ°Ñ€Ğ°Ñ‡Ğ¸",
        "name:ta": "à®•à®°à®¾à®šà¯à®šà®¿",
        "name:tr": "KaraÃ§i",
        "name:ur": "Ú©Ø±Ø§Ú†ÛŒ",
        "name:zh": "å¡æ‹‰å¥‡",
        "place": "city",
        "population": "14910352",
        "source:name:oc": "Lo CongrÃ¨s",
        "wikidata": "Q8660"
      },
      "geometry": {
        "type": "Point",
        "coordinates": [
          67.0311286,
          24.8667795
        ]
      },
      "id": "node/3181550515"
    },
    {
      "type": "Feature",
      "properties": {
        "@id": "node/3401391999",
        "alt_name": "Bangalore",
        "capital": "4",
        "ele": "920",
        "is_capital": "state",
        "is_in:country": "India",
        "is_in:iso_3166_2": "IN-KA",
        "name": "Bengaluru",
        "name:ar": "Ø¨Ù†ØºØ§Ù„ÙˆØ±",
        "name:as": "à¦¬à¦¾à¦‚à¦—à¦¾à¦²à§‹à§°",
        "name:be": "à¦¬à§‡à¦™à§à¦—à¦¾à¦²à§‚à¦°à§",
        "name:cs": "BengalÃºru",
        "name:de": "Bangalore",
        "name:el": "ÎœÏ€Î±Î½Î³ÎºÎ±Î»ÏŒÏ",
        "name:en": "Bengaluru",
        "name:fr": "Bangalore",
        "name:he": "×‘× ×’×œ×•×¨",
        "name:hi": "à¤¬à¥‡à¤‚à¤—à¤¾à¤²à¥à¤°à¥‚",
        "name:ja": "ãƒãƒ³ã‚¬ãƒ­ãƒ¼ãƒ«",
        "name:kn": "à²¬à³†à²‚à²—à²³à³‚à²°à³",
        "name:ko": "ë²µê°ˆë£¨ë£¨",
        "name:ml": "à´¬àµ†à´‚à´—à´³àµ‚à´°àµ",
        "name:ms": "Bangalore",
        "name:my": "á€˜á€”á€ºá€‚á€œá€­á€¯á€™á€¼á€­á€¯á€·",
        "name:oc": "Bengaluri",
        "name:ru": "Ğ‘Ğ°Ğ½Ğ³Ğ°Ğ»Ğ¾Ñ€",
        "name:te": "à°¬à±†à°‚à°—à°³à±‚à°°à±",
        "name:th": "à¸šà¸±à¸‡à¸„à¸²à¸¥à¸­à¸£à¹Œ",
        "name:uk": "Ğ‘ĞµĞ½Ğ³Ğ°Ğ»ÑƒÑ€Ñƒ",
        "name:ur": "Ø¨Ù†Ú¯Ù„ÙˆØ±",
        "name:zh": "ç­åŠ ç½—å°”",
        "old_name": "Bangalore",
        "old_name_1": "Bangalore",
        "place": "city",
        "population": "10839725",
        "postal_code": "560001",
        "source:name:oc": "Lo CongrÃ¨s",
        "wikidata": "Q1355",
        "wikipedia": "en:Bangalore"
      },
      "geometry": {
        "type": "Point",
        "coordinates": [
          77.5912997,
          12.9791198
        ]
      },
      "id": "node/3401391999"
    },
    {
      "type": "Feature",
      "properties": {
        "@id": "node/3510661780",
        "alt_name": "æ·±åœ³",
        "alt_name:cs": "Å enÅ¾en",
        "alt_name:ja": "æ·±åœ³å¸‚",
        "gns:ADM1": "30",
        "gns:DSG": "ADM2",
        "gns:UFI": "-1925270",
        "gns:UNI": "6722050",
        "is_in:country": "China",
        "name": "æ·±åœ³å¸‚",
        "name:af": "Shenzhen",
        "name:ar": "Ø´Ù†Ø¬Ù† (Ø§Ù„ØµÙŠÙ†)",
        "name:arz": "Ø´ÙŠÙ†Ø²Ù†",
        "name:ast": "Shenzhen",
        "name:az": "ÅenÃ§jen",
        "name:ba": "Ğ¨ÑĞ½ÑŒÑ‡Ğ¶ÑĞ½ÑŒ",
        "name:be": "Ğ¨ÑĞ½ÑŒÑ‡Ğ¶ÑĞ½ÑŒ",
        "name:be-tarask": "Ğ¨ÑĞ½ÑŒÑ‡Ğ¶ÑĞ½ÑŒ",
        "name:bg": "Ğ¨ÑŠĞ½Ğ´Ğ¶ÑŠĞ½",
        "name:bm": "Shenzhen",
        "name:bn": "à¦¶à§‡à¦¨à¦šà§‡à¦¨",
        "name:br": "Shenzhen",
        "name:ca": "Shenzhen",
        "name:cdo": "ChÄ­ng-dÃ¡ung",
        "name:ceb": "Shenzhen",
        "name:chy": "Shenzhen",
        "name:ckb": "Ø´ÛÙ†Ø¬ÛÙ†",
        "name:cs": "Å en-Äen",
        "name:cy": "Shenzhen",
        "name:da": "Shenzhen",
        "name:de": "Shenzhen",
        "name:el": "Î£ÎµÎ½Ï„ÏƒÎ­Î½",
        "name:en": "Shenzhen",
        "name:eo": "ÅœenÄµeno",
        "name:es": "Shenzhen",
        "name:et": "Shenzhen",
        "name:eu": "Shenzhen",
        "name:fa": "Ø´Ù†Ú˜Ù†",
        "name:fi": "Shenzhen",
        "name:fj": "Shenzhen",
        "name:fr": "Shenzhen",
        "name:ga": "Shenzhen",
        "name:gl": "Shenzhen",
        "name:ha": "Shenzhen",
        "name:hak": "Chhá¹³Ì‚m-chun-sá¹³",
        "name:he": "×©× ×’'×Ÿ",
        "name:hi": "à¤¶à¥‡à¤¨à¥à¤à¥‡à¤¨",
        "name:hr": "Å enÅ¾en",
        "name:hu": "Sencsen",
        "name:hy": "Õ‡Õ¥Õ¶ÕªÕ¥Õ¶",
        "name:ia": "Shenzhen",
        "name:id": "Shenzhen",
        "name:io": "Shenzhen",
        "name:is": "Shenzhen",
        "name:it": "Shenzhen",
        "name:ja": "æ·±ã‚»ãƒ³å¸‚",
        "name:ka": "áƒ¨áƒ”áƒœáƒ¯áƒ”áƒœáƒ˜",
        "name:ki": "Shenzhen",
        "name:kk": "Ğ¨ÑĞ½ÑŒÑ‡Ğ¶ÑĞ½ÑŒ",
        "name:kl": "Shenzhen",
        "name:ko": "ì„ ì „ì‹œ",
        "name:kw": "Shenzhen",
        "name:ky": "Ğ¨ÑĞ½ÑŒÑ‡Ğ¶ÑĞ½ÑŒ",
        "name:la": "Shenzhen",
        "name:lt": "Å endÅ¾enas",
        "name:lv": "Å eÅ†dÅ¾eÅ†a",
        "name:mai": "à¤¶à¥‡à¤¨à¤à¥‡à¤¨",
        "name:mg": "Shenzhen",
        "name:mi": "Shenzhen",
        "name:mk": "Ğ¨ĞµĞ½ÑŸĞµĞ½",
        "name:ml": "à´·àµ†à´àµà´œàµ†àµ»",
        "name:mn": "Ğ¨ÑĞ½ÑŒĞ¶ÑĞ½ÑŒ",
        "name:mr": "à¤·à¥‡à¤‚à¤šà¥‡à¤¨",
        "name:ms": "Shenzhen",
        "name:my": "á€›á€¾á€­á€”á€ºá€¸á€€á€»á€­á€”á€·á€ºá€™á€¼á€­á€¯á€·",
        "name:nah": "Shenzhen",
        "name:nan": "Chhim-chÃ¹n-chhÄ«",
        "name:ne": "à¤¶à¥‡à¤¨à¤à¥‡à¤¨",
        "name:nl": "Shenzhen",
        "name:nn": "Shenzhen",
        "name:no": "Shenzhen",
        "name:ny": "Shenzhen",
        "name:os": "Ğ¨ÑĞ½ÑŒÑ‡Ğ¶ÑĞ½ÑŒ",
        "name:pa": "à¨¸à¨¼à©ˆà¨¨à¨œà¨¼à©ˆà¨¨",
        "name:pam": "Shenzhen",
        "name:pl": "Shenzhen",
        "name:pnb": "Ø´ÛŒÙ†Ú˜ÛŒÙ†",
        "name:pt": "Shenzhen",
        "name:qu": "Shenzhen",
        "name:ro": "Shenzhen",
        "name:ru": "Ğ¨ÑĞ½ÑŒÑ‡Ğ¶ÑĞ½ÑŒ",
        "name:sco": "Shenzhen",
        "name:sh": "Å enÅ¾en",
        "name:sk": "Å en-Äen",
        "name:sr": "Ğ¨ĞµĞ½ÑŸĞµĞ½",
        "name:sv": "Shenzhen",
        "name:sw": "Shenzhen",
        "name:ta": "à®šà¯†à®©à¯à®šà¯†à®©à¯",
        "name:te": "à°·à±†à°¨à±â€Œà°œà±†à°¨à±",
        "name:th": "à¹€à¸Šà¸´à¸™à¹€à¸ˆà¸´à¹‰à¸™",
        "name:tl": "Shenzhen",
        "name:tn": "Shenzhen",
        "name:tr": "Shenzhen",
        "name:ug": "Ø´ÛÙ†Ø¬ÛÙ† Ø´Û•Ú¾Ù‰Ø±Ù‰",
        "name:uk": "Ğ¨ĞµĞ½ÑŒÑ‡Ğ¶ĞµĞ½ÑŒ",
        "name:ur": "Ø´ÛŒÙ†Ø²ÛŒÙ†",
        "name:vep": "Å en'ÄÅ¾en'",
        "name:vi": "ThÃ¢m Quyáº¿n",
        "name:war": "Shenzhen",
        "name:wo": "Shenzhen",
        "name:wuu": "æ·±åœ³å¸‚",
        "name:yue": "æ·±åœ³",
        "name:za": "Sinhcin",
        "name:zh": "æ·±åœ³å¸‚",
        "name:zh_pinyin": "ShÄ“nzhÃ¨n ShÃ¬",
        "place": "city",
        "population": "12528300",
        "short_name": "æ·±åœ³",
        "wikidata": "Q15174",
        "wikipedia": "en:Shenzhen"
      },
      "geometry": {
        "type": "Point",
        "coordinates": [
          114.0543297,
          22.555454
        ]
      },
      "id": "node/3510661780"
    },
    {
      "type": "Feature",
      "properties": {
        "@id": "node/3862624198",
        "alt_name": "Cochin",
        "name": "Kochi",
        "name:ar": "ÙƒÙˆØªØ´ÙŠ",
        "name:cs": "KÃ³Äin",
        "name:en": "Kochi",
        "name:he": "×§×•×¦'×™",
        "name:hi": "à¤•à¥‹à¤šà¥à¤šà¤¿",
        "name:ja": "ã‚³ãƒ¼ãƒ",
        "name:kn": "à²•à³Šà²šà³à²šà²¿",
        "name:ml": "à´•àµŠà´šàµà´šà´¿",
        "name:pa": "à¨•à©‹à¨šà©€",
        "name:ru": "ĞšĞ¾Ñ‡Ñ‡Ğ¸",
        "name:sr": "ĞšĞ¾Ñ‡Ğ¸Ğ½",
        "name:ta": "à®•à¯Šà®šà¯à®šà®¿",
        "name:uk": "ĞšĞ¾Ñ‡Ñ–",
        "name:zh": "ç§‘é’¦",
        "place": "city",
        "population": "677,381",
        "source": "Bing",
        "wikidata": "Q1800",
        "wikipedia": "en:Kochi"
      },
      "geometry": {
        "type": "Point",
        "coordinates": [
          76.2674136,
          9.931308
        ]
      },
      "id": "node/3862624198"
    },
    {
      "type": "Feature",
      "properties": {
        "@id": "node/4340385989",
        "name": "Kamez",
        "name:bg": "ĞšĞ°Ğ¼Ğ·Ğ°",
        "name:de": "Kamza",
        "name:en": "KamÃ«z",
        "name:mk": "ĞšĞ°Ğ¼Ğ·Ğ°",
        "name:ru": "ĞšĞ°Ğ¼Ğ·Ğ°",
        "name:ur": "Ú©Ø§Ù…Ø²Ø§",
        "name:zh": "å¡å§†æ‰",
        "place": "city",
        "population": "110'000",
        "wikidata": "Q605160",
        "wikipedia": "en:KamÃ«z"
      },
      "geometry": {
        "type": "Point",
        "coordinates": [
          19.7604224,
          41.3835259
        ]
      },
      "id": "node/4340385989"
    },
    {
      "type": "Feature",
      "properties": {
        "@id": "node/7054842268",
        "name": "Ø³Ù…Ø§ Ø§Ù„Ø³Ø±Ø­Ø§Ù†",
        "name:en": "Sama as-Sirhan",
        "name:nl": "Sama as-Sirhan",
        "place": "city",
        "population": "Ø§Ù„Ø³Ø±Ø­Ø§Ù†"
      },
      "geometry": {
        "type": "Point",
        "coordinates": [
          36.2427479,
          32.4695306
        ]
      },
      "id": "node/7054842268"
    },
    {
      "type": "Feature",
      "properties": {
        "@id": "node/7083218370",
        "name": "Rajarhat",
        "place": "city",
        "population": "402,844",
        "wikidata": "Q247261",
        "wikipedia": "en:Rajarhat"
      },
      "geometry": {
        "type": "Point",
        "coordinates": [
          88.5194763,
          22.6103521
        ]
      },
      "id": "node/7083218370"
    },
    {
      "type": "Feature",
      "properties": {
        "@id": "node/7404478020",
        "description": "here living 50,000 thousand people.",
        "name": "à¦šà¦¨à¦ªà¦¾à§œà¦¾",
        "name:bn": "à¦šà¦¨à¦ªà¦¾à§œà¦¾",
        "name:en": "Chanpara",
        "place": "city",
        "population": "50,000"
      },
      "geometry": {
        "type": "Point",
        "coordinates": [
          90.5030419,
          23.7323794
        ]
      },
      "id": "node/7404478020"
    },
    {
      "type": "Feature",
      "properties": {
        "@id": "node/7415299907",
        "description": "à¦°à¦‚à¦ªà§à¦° à¦¬à¦¿à¦­à¦¾à¦—à§‡à¦° à¦•à§à¦¡à¦¼à¦¿à¦—à§à¦°à¦¾à¦® à¦œà§‡à¦²à¦¾à§Ÿ à¦…à¦¬à¦¸à§à¦¥à¦¿à¦¤ à¦¶à¦¹à¦° / City located in Kurigram district",
        "name": "à¦•à§à§œà¦¿à¦—à§à¦°à¦¾à¦®",
        "name:bn": "à¦•à§à§œà¦¿à¦—à§à¦°à¦¾à¦®",
        "name:en": "Kurigram",
        "name:fa": "Ú©ÙˆØ±ÛŒÚ¯Ø±Ø§Ù…",
        "name:hi": "à¤•à¥à¤°à¥€à¤—à¥à¤°à¤¾à¤®",
        "place": "city",
        "population": "2,069,273",
        "wikidata": "Q2348751",
        "wikipedia": "bn:à¦•à§à¦¡à¦¼à¦¿à¦—à§à¦°à¦¾à¦®"
      },
      "geometry": {
        "type": "Point",
        "coordinates": [
          89.6433287,
          25.8128959
        ]
      },
      "id": "node/7415299907"
    },
    {
      "type": "Feature",
      "properties": {
        "@id": "node/7516102355",
        "name": "Yakuac",
        "place": "city",
        "population": "unknown"
      },
      "geometry": {
        "type": "Point",
        "coordinates": [
          32.4094937,
          8.9447624
        ]
      },
      "id": "node/7516102355"
    },
    {
      "type": "Feature",
      "properties": {
        "@id": "node/7673015520",
        "alt_name": "Takshashila",
        "description": "Taxila is a city in Rawalpindi District of Punjab, Pakistan. Taxila is situated about 32 km (20 mi) north-west of Islamabad and Rawalpindi, along the historic Grand Trunk Road, near the important Sikh pilgrimage centre of Hasan Abdal.",
        "int_name": "Taxila",
        "name": "Ù¹ÛŒÚ©Ø³Ù„Ø§",
        "name:ar": "ØªØ§ÙƒØ³ÙŠÙ„Ø§",
        "name:en": "Taxila",
        "name:gu": "àª¤àª•à«àª·àª¶àª¿àª²àª¾",
        "name:hi": "à¤¤à¤•à¥à¤·à¤¶à¤¿à¤²à¤¾",
        "name:ja": "ã‚¿ã‚­ã‚·ãƒ©",
        "name:ml": "à´¤à´•àµà´·à´¶à´¿à´²",
        "name:mr": "à¤¤à¤•à¥à¤·à¤¶à¤¿à¤²à¤¾",
        "name:ne": "à¤¤à¤•à¥à¤·à¤¶à¤¿à¤²à¤¾",
        "name:pa-Arab": "ØªÚ©Ø´Ø´Ù„Ø§",
        "name:ru": "Ğ¢Ğ°ĞºÑĞ¸Ğ»Ğ°;Ğ¢Ğ°ĞºÑˆĞ°ÑˆĞ¸Ğ»Ğ°",
        "name:ta": "à®¤à®Ÿà¯à®šà®šà¯€à®²à®®à¯",
        "name:uk": "Ğ¢Ğ°ĞºÑĞ¸Ğ»Ğ°",
        "name:ur": "Ù¹ÛŒÚ©Ø³Ù„Ø§",
        "name:zh": "å¡”å…‹è¥¿æ‹‰",
        "place": "city",
        "population": "48,904",
        "wikidata": "Q30304289",
        "wikipedia": "en:Taxila, Pakistan"
      },
      "geometry": {
        "type": "Point",
        "coordinates": [
          72.8073364,
          33.7474551
        ]
      },
      "id": "node/7673015520"
    },
    {
      "type": "Feature",
      "properties": {
        "@id": "node/8130559260",
        "ele": "12",
        "mapillary": "Nagarukhra",
        "name": "Nagarukhra",
        "place": "city",
        "population": "46,914",
        "wikidata": "Q101001140",
        "wikimedia_commons": "File:Landscape view of Post Office Road Morr, Highstreet.jpg",
        "wikipedia": "en:Nagarukhra, Nadia"
      },
      "geometry": {
        "type": "Point",
        "coordinates": [
          88.6378525,
          22.9392223
        ]
      },
      "id": "node/8130559260"
    }
  ]
}